addresstypedescriptorid,city,educationorganizationid,postalcode,stateabbreviationdescriptorid,streetnumbername,studentusi,apartmentroomsuitenumber,buildingsitenumber,nameofcounty,countyfipscode,latitude,longitude,donotpublishindicator,congressionaldistrict,localedescriptorid,createdate
"90","Grand Bend","255901","78834","2222","54 Rocky Clarendon Avenue","2",,,"WILLISTON",,,,,,,"2020-11-13 14:17:28.511575"
"90","Grand Bend","255901","78834","2222","552 Rocky Old Road","1",,,"WILLISTON",,,,,,,"2020-11-13 14:17:28.511798"
"90","Grand Bend","255901","78834","2222","263 New Street","3",,,"WILLISTON",,,,,,,"2020-11-13 14:17:28.512039"
"90","Grand Bend","255901","78834","2222","22 Oak Way","8",,,"WILLISTON",,,,,,,"2020-11-13 14:17:28.547562"
"90","Grand Bend","255901","78834","2222","38 Milton Drive","7",,,"WILLISTON",,,,,,,"2020-11-13 14:17:28.547746"
"90","Grand Bend","255901","78834","2222","452 Oak St.","5",,,"WILLISTON",,,,,,,"2020-11-13 14:17:28.550828"
"90","Grand Bend","255901","78834","2222","289 East White Old St.","9",,,"WILLISTON",,,,,,,"2020-11-13 14:17:28.577836"
"90","Grand Bend","255901","78834","2222","86 Old Blvd.","10",,,"WILLISTON",,,,,,,"2020-11-13 14:17:28.578905"
"90","Grand Bend","255901","78834","2222","72 South Green Second Street","11",,,"WILLISTON",,,,,,,"2020-11-13 14:17:28.584096"
"90","Grand Bend","255901","78834","2222","828 Rocky Clarendon Parkway","14",,,"WILLISTON",,,,,,,"2020-11-13 14:17:28.603455"
"90","Grand Bend","255901","78834","2222","856 South Green Milton Street","16",,,"WILLISTON",,,,,,,"2020-11-13 14:17:28.605272"
"90","Grand Bend","255901","78834","2222","81 White Clarendon Way","17",,,"WILLISTON",,,,,,,"2020-11-13 14:17:28.623585"
"90","Grand Bend","255901","78834","2222","926 Rocky Fabien Way","19",,,"WILLISTON",,,,,,,"2020-11-13 14:17:28.628418"
"90","Grand Bend","255901","78834","2222","78 Rocky Nobel Avenue","21",,,"WILLISTON",,,,,,,"2020-11-13 14:17:28.651449"
"90","Grand Bend","255901","78834","2222","16 Green Fabien St.","22",,,"WILLISTON",,,,,,,"2020-11-13 14:17:28.652422"
"90","Grand Bend","255901","78834","2222","99 First Way","20",,,"WILLISTON",,,,,,,"2020-11-13 14:17:28.671983"
"90","Grand Bend","255901","78834","2222","851 Old St.","24",,,"WILLISTON",,,,,,,"2020-11-13 14:17:28.672986"
"90","Grand Bend","255901","78834","2222","83 West Clarendon Parkway","25",,,"WILLISTON",,,,,,,"2020-11-13 14:17:28.675452"
"90","Grand Bend","255901","78834","2222","200 Fabien Parkway","27",,,"WILLISTON",,,,,,,"2020-11-13 14:17:28.699494"
"90","Grand Bend","255901","78834","2222","62 Nobel Boulevard","28",,,"WILLISTON",,,,,,,"2020-11-13 14:17:28.700804"
"90","Grand Bend","255901","78834","2222","97 North White Second Avenue","29",,,"WILLISTON",,,,,,,"2020-11-13 14:17:28.708108"
"90","Grand Bend","255901","78834","2222","58 Oak Parkway","32",,,"WILLISTON",,,,,,,"2020-11-13 14:17:28.723003"
"90","Grand Bend","255901","78834","2222","79 New Blvd.","33",,,"WILLISTON",,,,,,,"2020-11-13 14:17:28.726689"
"90","Grand Bend","255901","78834","2222","17 South Hague Street","34",,,"WILLISTON",,,,,,,"2020-11-13 14:17:28.738022"
"90","Grand Bend","255901","78834","2222","411 North Rocky Milton Way","35",,,"WILLISTON",,,,,,,"2020-11-13 14:17:28.744928"
"90","Grand Bend","255901","78834","2222","74 Rocky Nobel St.","37",,,"WILLISTON",,,,,,,"2020-11-13 14:17:28.751428"
"90","Grand Bend","255901","78834","2222","890 Second Street","38",,,"WILLISTON",,,,,,,"2020-11-13 14:17:28.767383"
"90","Grand Bend","255901","78834","2222","316 East Rocky Milton Parkway","40",,,"WILLISTON",,,,,,,"2020-11-13 14:17:28.774859"
"90","Grand Bend","255901","78834","2222","724 New St.","41",,,"WILLISTON",,,,,,,"2020-11-13 14:17:28.782328"
"90","Grand Bend","255901","78834","2222","706 Fabien Boulevard","42",,,"WILLISTON",,,,,,,"2020-11-13 14:17:28.790094"
"90","Grand Bend","255901","78834","2222","67 White Hague Avenue","44",,,"WILLISTON",,,,,,,"2020-11-13 14:17:28.798570"
"90","Grand Bend","255901","78834","2222","109 First Boulevard","45",,,"WILLISTON",,,,,,,"2020-11-13 14:17:28.816548"
"90","Grand Bend","255901","78834","2222","156 South White First Way","46",,,"WILLISTON",,,,,,,"2020-11-13 14:17:28.820826"
"90","Grand Bend","255901","78834","2222","590 Old Freeway","47",,,"WILLISTON",,,,,,,"2020-11-13 14:17:28.828343"
"90","Grand Bend","255901","78834","2222","69 Oak Way","50",,,"WILLISTON",,,,,,,"2020-11-13 14:17:28.845882"
"90","Grand Bend","255901","78834","2222","83 Nobel Street","51",,,"WILLISTON",,,,,,,"2020-11-13 14:17:28.855997"
"90","Grand Bend","255901","78834","2222","329 Oak Freeway","53",,,"WILLISTON",,,,,,,"2020-11-13 14:17:28.869168"
"90","Grand Bend","255901","78834","2222","805 White Second Street","55",,,"WILLISTON",,,,,,,"2020-11-13 14:17:28.879937"
"90","Grand Bend","255901","78834","2222","455 Milton Way","58",,,"WILLISTON",,,,,,,"2020-11-13 14:17:28.900304"
"90","Grand Bend","255901","78834","2222","345 North Green Cowley Avenue","60",,,"WILLISTON",,,,,,,"2020-11-13 14:17:28.912434"
"90","Grand Bend","255901","78834","2222","27 Oak St.","62",,,"WILLISTON",,,,,,,"2020-11-13 14:17:28.931480"
"90","Grand Bend","255901","78834","2222","984 South Rocky Second Avenue","64",,,"WILLISTON",,,,,,,"2020-11-13 14:17:28.940935"
"90","Grand Bend","255901","78834","2222","758 Milton Boulevard","67",,,"WILLISTON",,,,,,,"2020-11-13 14:17:28.962746"
"90","Grand Bend","255901","78834","2222","16 Green Hague Way","68",,,"WILLISTON",,,,,,,"2020-11-13 14:17:28.970960"
"90","Grand Bend","255901","78834","2222","459 Nobel Way","69",,,"WILLISTON",,,,,,,"2020-11-13 14:17:28.986313"
"90","Grand Bend","255901","78834","2222","84 Rocky Nobel Drive","70",,,"WILLISTON",,,,,,,"2020-11-13 14:17:28.988620"
"90","Grand Bend","255901","78834","2222","203 Oak Boulevard","72",,,"WILLISTON",,,,,,,"2020-11-13 14:17:29.009996"
"90","Grand Bend","255901","78834","2222","11 East New Drive","74",,,"WILLISTON",,,,,,,"2020-11-13 14:17:29.011775"
"90","Grand Bend","255901","78834","2222","86 Oak Parkway","75",,,"WILLISTON",,,,,,,"2020-11-13 14:17:29.025465"
"90","Grand Bend","255901","78834","2222","489 Fabien Boulevard","79",,,"WILLISTON",,,,,,,"2020-11-13 14:17:29.032744"
"90","Grand Bend","255901","78834","2222","749 Green Second Parkway","76",,,"WILLISTON",,,,,,,"2020-11-13 14:17:29.039480"
"90","Grand Bend","255901","78834","2222","834 Second Avenue","80",,,"WILLISTON",,,,,,,"2020-11-13 14:17:29.056292"
"90","Grand Bend","255901","78834","2222","82 Green New Avenue","82",,,"WILLISTON",,,,,,,"2020-11-13 14:17:29.069350"
"90","Grand Bend","255901","78834","2222","25 North Clarendon Boulevard","83",,,"WILLISTON",,,,,,,"2020-11-13 14:17:29.073934"
"90","Grand Bend","255901","78834","2222","75 Rocky Fabien Blvd.","86",,,"WILLISTON",,,,,,,"2020-11-13 14:17:29.099844"
"90","Grand Bend","255901","78834","2222","247 White Fabien Road","87",,,"WILLISTON",,,,,,,"2020-11-13 14:17:29.108008"
"90","Grand Bend","255901","78834","2222","97 Clarendon Drive","89",,,"WILLISTON",,,,,,,"2020-11-13 14:17:29.122172"
"90","Grand Bend","255901","78834","2222","315 Oak Drive","90",,,"WILLISTON",,,,,,,"2020-11-13 14:17:29.124245"
"90","Grand Bend","255901","78834","2222","769 Green Fabien Road","92",,,"WILLISTON",,,,,,,"2020-11-13 14:17:29.140929"
"90","Grand Bend","255901","78834","2222","37 Rocky Fabien Boulevard","93",,,"WILLISTON",,,,,,,"2020-11-13 14:17:29.147845"
"90","Grand Bend","255901","78834","2222","182 White First Blvd.","96",,,"WILLISTON",,,,,,,"2020-11-13 14:17:29.167073"
"90","Grand Bend","255901","78834","2222","943 Rocky Oak Parkway","98",,,"WILLISTON",,,,,,,"2020-11-13 14:17:29.174570"
"90","Grand Bend","255901","78834","2222","581 New Way","99",,,"WILLISTON",,,,,,,"2020-11-13 14:17:29.189341"
"90","Grand Bend","255901","78834","2222","55 West White Milton Parkway","101",,,"WILLISTON",,,,,,,"2020-11-13 14:17:29.196626"
"90","Grand Bend","255901","78834","2222","28 Nobel Avenue","103",,,"WILLISTON",,,,,,,"2020-11-13 14:17:29.214231"
"90","Grand Bend","255901","78834","2222","338 White Old Parkway","104",,,"WILLISTON",,,,,,,"2020-11-13 14:17:29.217884"
"90","Grand Bend","255901","78834","2222","59 North Cowley Road","106",,,"WILLISTON",,,,,,,"2020-11-13 14:17:29.237258"
"90","Grand Bend","255901","78834","2222","830 North Green First Freeway","107",,,"WILLISTON",,,,,,,"2020-11-13 14:17:29.242846"
"90","Grand Bend","255901","78834","2222","65 Cowley Parkway","109",,,"WILLISTON",,,,,,,"2020-11-13 14:17:29.267965"
"94","Grand Bend","255901","78834","2222","293 Rocky Cowley Way","110",,,"WILLISTON",,,,,,,"2020-11-13 14:17:29.271054"
"90","Grand Bend","255901","78834","2222","697 Milton St.","112",,,"WILLISTON",,,,,,,"2020-11-13 14:17:29.274850"
"90","Grand Bend","255901","78834","2222","13 New Boulevard","115",,,"WILLISTON",,,,,,,"2020-11-13 14:17:29.298347"
"90","Grand Bend","255901","78834","2222","547 North Cowley Blvd.","119",,,"WILLISTON",,,,,,,"2020-11-13 14:17:29.327443"
"90","Grand Bend","255901","78834","2222","388 Clarendon Boulevard","121",,,"WILLISTON",,,,,,,"2020-11-13 14:17:29.344163"
"90","Grand Bend","255901","78834","2222","597 Green Cowley Avenue","122",,,"WILLISTON",,,,,,,"2020-11-13 14:17:29.350779"
"90","Grand Bend","255901","78834","2222","952 East Second St.","125",,,"WILLISTON",,,,,,,"2020-11-13 14:17:29.373327"
"90","Grand Bend","255901","78834","2222","971 West Milton Parkway","129",,,"WILLISTON",,,,,,,"2020-11-13 14:17:29.398614"
"90","Grand Bend","255901","78834","2222","924 Oak Blvd.","133",,,"WILLISTON",,,,,,,"2020-11-13 14:17:29.422766"
"94","Grand Bend","255901","78834","2222","95 North Oak St.","135",,,"WILLISTON",,,,,,,"2020-11-13 14:17:29.429839"
"90","Grand Bend","255901","78834","2222","43 South Milton Street","137",,,"WILLISTON",,,,,,,"2020-11-13 14:17:29.446241"
"94","Grand Bend","255901","78834","2222","780 White Clarendon Avenue","146",,,"WILLISTON",,,,,,,"2020-11-13 14:17:29.508369"
"90","Grand Bend","255901","78834","2222","737 North White Fabien Road","150",,,"WILLISTON",,,,,,,"2020-11-13 14:17:29.531598"
"94","Grand Bend","255901","78834","2222","45 South Rocky Oak Road","155",,,"WILLISTON",,,,,,,"2020-11-13 14:17:29.562586"
"90","Grand Bend","255901","78834","2222","531 West Rocky Milton Way","159",,,"WILLISTON",,,,,,,"2020-11-13 14:17:29.587635"
"90","Grand Bend","255901","78834","2222","81 Old Avenue","163",,,"WILLISTON",,,,,,,"2020-11-13 14:17:29.856575"
"94","Grand Bend","255901","78834","2222","57 Old Freeway","170",,,"WILLISTON",,,,,,,"2020-11-13 14:17:29.886649"
"90","Grand Bend","255901","78834","2222","374 Fabien St.","175",,,"WILLISTON",,,,,,,"2020-11-13 14:17:29.914905"
"94","Grand Bend","255901","78834","2222","634 Hague Way","181",,,"WILLISTON",,,,,,,"2020-11-13 14:17:29.992409"
"94","Grand Bend","255901","78834","2222","604 Old Street","186",,,"WILLISTON",,,,,,,"2020-11-13 14:17:30.039190"
"94","Grand Bend","255901","78834","2222","26 Green Second Way","194",,,"WILLISTON",,,,,,,"2020-11-13 14:17:30.092606"
"90","Grand Bend","255901","78834","2222","45 Oak Blvd.","197",,,"WILLISTON",,,,,,,"2020-11-13 14:17:30.116100"
"90","Grand Bend","255901","78834","2222","49 West White Old Blvd.","202",,,"WILLISTON",,,,,,,"2020-11-13 14:17:30.148074"
"90","Grand Bend","255901","78834","2222","589 East Rocky First Street","204",,,"WILLISTON",,,,,,,"2020-11-13 14:17:30.164617"
"94","Grand Bend","255901","78834","2222","38 Old Avenue","207",,,"WILLISTON",,,,,,,"2020-11-13 14:17:30.186874"
"94","Grand Bend","255901","78834","2222","948 White Old Boulevard","215",,,"WILLISTON",,,,,,,"2020-11-13 14:17:30.238053"
"94","Grand Bend","255901","78834","2222","796 Milton Boulevard","221",,,"WILLISTON",,,,,,,"2020-11-13 14:17:30.269115"
"90","Grand Bend","255901","78834","2222","91 West White Old Freeway","228",,,"WILLISTON",,,,,,,"2020-11-13 14:17:30.319279"
"94","Grand Bend","255901","78834","2222","138 Rocky Old Blvd.","234",,,"WILLISTON",,,,,,,"2020-11-13 14:17:30.356383"
"90","Grand Bend","255901","78834","2222","34 Old Drive","237",,,"WILLISTON",,,,,,,"2020-11-13 14:17:30.369845"
"90","Grand Bend","255901","78834","2222","25 White Second Blvd.","242",,,"WILLISTON",,,,,,,"2020-11-13 14:17:30.418661"
"94","Grand Bend","255901","78834","2222","61 Green Milton Blvd.","249",,,"WILLISTON",,,,,,,"2020-11-13 14:17:30.464255"
"94","Grand Bend","255901","78834","2222","53 New Boulevard","254",,,"WILLISTON",,,,,,,"2020-11-13 14:17:30.508005"
"94","Grand Bend","255901","78834","2222","810 Hague Drive","259",,,"WILLISTON",,,,,,,"2020-11-13 14:17:30.539020"
"94","Grand Bend","255901","78834","2222","80 South Green Nobel Drive","261",,,"WILLISTON",,,,,,,"2020-11-13 14:17:30.557928"
"91","Grand Bend","255901","78834","2222","474 Rocky Nobel Avenue","272",,,"WILLISTON",,,,,,,"2020-11-13 14:17:30.614864"
"94","Grand Bend","255901","78834","2222","58 Green First Boulevard","270",,,"WILLISTON",,,,,,,"2020-11-13 14:17:30.629502"
"91","Grand Bend","255901","78834","2222","515 West Nobel Blvd.","275",,,"WILLISTON",,,,,,,"2020-11-13 14:17:30.649089"
"94","Grand Bend","255901","78834","2222","39 Hague Way","278",,,"WILLISTON",,,,,,,"2020-11-13 14:17:30.671649"
"90","Grand Bend","255901","78834","2222","680 New Way","282",,,"WILLISTON",,,,,,,"2020-11-13 14:17:30.704989"
"91","Grand Bend","255901","78834","2222","574 Clarendon Road","290",,,"WILLISTON",,,,,,,"2020-11-13 14:17:30.757140"
"90","Grand Bend","255901","78834","2222","94 South Nobel Freeway","292",,,"WILLISTON",,,,,,,"2020-11-13 14:17:30.765810"
"91","Grand Bend","255901","78834","2222","308 White First Boulevard","295",,,"WILLISTON",,,,,,,"2020-11-13 14:17:30.787009"
"90","Grand Bend","255901","78834","2222","982 North Green Second Road","318",,,"WILLISTON",,,,,,,"2020-11-13 14:17:30.935915"
"91","Grand Bend","255901","78834","2222","29 West New Avenue","319",,,"WILLISTON",,,,,,,"2020-11-13 14:17:30.953676"
"91","Grand Bend","255901","78834","2222","69 Rocky Fabien St.","326",,,"WILLISTON",,,,,,,"2020-11-13 14:17:30.991346"
"91","Grand Bend","255901","78834","2222","17 White Clarendon Boulevard","329",,,"WILLISTON",,,,,,,"2020-11-13 14:17:31.013792"
"90","Grand Bend","255901","78834","2222","58 Oak Way","334",,,"WILLISTON",,,,,,,"2020-11-13 14:17:31.037535"
"90","Grand Bend","255901","78834","2222","648 East Oak St.","345",,,"WILLISTON",,,,,,,"2020-11-13 14:17:31.111951"
"90","Grand Bend","255901","78834","2222","78 First Parkway","347",,,"WILLISTON",,,,,,,"2020-11-13 14:17:31.134550"
"91","Grand Bend","255901","78834","2222","85 West Fabien Street","351",,,"WILLISTON",,,,,,,"2020-11-13 14:17:31.158639"
"91","Grand Bend","255901","78834","2222","51 West Green First Drive","357",,,"WILLISTON",,,,,,,"2020-11-13 14:17:31.186628"
"91","Grand Bend","255901","78834","2222","31 North Cowley Road","358",,,"WILLISTON",,,,,,,"2020-11-13 14:17:31.199295"
"90","Grand Bend","255901","78834","2222","659 Rocky Oak Parkway","362",,,"WILLISTON",,,,,,,"2020-11-13 14:17:31.225050"
"91","Grand Bend","255901","78834","2222","388 White Hague Drive","364",,,"WILLISTON",,,,,,,"2020-11-13 14:17:31.233785"
"90","Grand Bend","255901","78834","2222","53 South Oak Way","367",,,"WILLISTON",,,,,,,"2020-11-13 14:17:31.255908"
"94","Grand Bend","255901","78834","2222","69 Rocky Second Way","371",,,"WILLISTON",,,,,,,"2020-11-13 14:17:31.285545"
"90","Grand Bend","255901","78834","2222","200 Rocky Nobel Street","376",,,"WILLISTON",,,,,,,"2020-11-13 14:17:31.310598"
"90","Grand Bend","255901","78834","2222","529 Fabien Street","377",,,"WILLISTON",,,,,,,"2020-11-13 14:17:31.324699"
"90","Grand Bend","255901","78834","2222","456 Green Nobel Boulevard","380",,,"WILLISTON",,,,,,,"2020-11-13 14:17:31.335258"
"91","Grand Bend","255901","78834","2222","82 Second Avenue","382",,,"WILLISTON",,,,,,,"2020-11-13 14:17:31.356585"
"91","Grand Bend","255901","78834","2222","46 Green Second Drive","386",,,"WILLISTON",,,,,,,"2020-11-13 14:17:31.390990"
"90","Grand Bend","255901","78834","2222","53 Second Parkway","390",,,"WILLISTON",,,,,,,"2020-11-13 14:17:31.416945"
"90","Grand Bend","255901","78834","2222","25 Green First St.","400",,,"WILLISTON",,,,,,,"2020-11-13 14:17:31.482114"
"90","Grand Bend","255901","78834","2222","28 East New Way","407",,,"WILLISTON",,,,,,,"2020-11-13 14:17:31.527620"
"90","Grand Bend","255901","78834","2222","92 Rocky Hague Road","408",,,"WILLISTON",,,,,,,"2020-11-13 14:17:31.539714"
"93","Grand Bend","255901","78834","2222","23 Rocky Milton Street","414",,,"WILLISTON",,,,,,,"2020-11-13 14:17:31.568299"
"93","Grand Bend","255901","78834","2222","43 Nobel Way","421",,,"WILLISTON",,,,,,,"2020-11-13 14:17:31.630855"
"90","Grand Bend","255901","78834","2222","25 White Hague St.","427",,,"WILLISTON",,,,,,,"2020-11-13 14:17:31.659521"
"93","Grand Bend","255901","78834","2222","981 East Cowley Avenue","437",,,"WILLISTON",,,,,,,"2020-11-13 14:17:31.720777"
"93","Grand Bend","255901","78834","2222","589 West Green Hague Street","440",,,"WILLISTON",,,,,,,"2020-11-13 14:17:31.742415"
"90","Grand Bend","255901","78834","2222","435 Second Blvd.","113",,,"WILLISTON",,,,,,,"2020-11-13 14:17:29.295233"
"90","Grand Bend","255901","78834","2222","54 Oak Boulevard","126",,,"WILLISTON",,,,,,,"2020-11-13 14:17:29.378773"
"94","Grand Bend","255901","78834","2222","540 White Nobel Blvd.","139",,,"WILLISTON",,,,,,,"2020-11-13 14:17:29.455071"
"90","Grand Bend","255901","78834","2222","45 Rocky Second St.","143",,,"WILLISTON",,,,,,,"2020-11-13 14:17:29.481722"
"94","Grand Bend","255901","78834","2222","756 Nobel Boulevard","160",,,"WILLISTON",,,,,,,"2020-11-13 14:17:29.602068"
"90","Grand Bend","255901","78834","2222","52 White Second St.","166",,,"WILLISTON",,,,,,,"2020-11-13 14:17:29.859350"
"90","Grand Bend","255901","78834","2222","288 Old Street","168",,,"WILLISTON",,,,,,,"2020-11-13 14:17:29.880351"
"94","Grand Bend","255901","78834","2222","932 Clarendon Avenue","183",,,"WILLISTON",,,,,,,"2020-11-13 14:17:30.000799"
"94","Grand Bend","255901","78834","2222","95 West Fabien Road","185",,,"WILLISTON",,,,,,,"2020-11-13 14:17:30.038018"
"90","Grand Bend","255901","78834","2222","87 Cowley Way","190",,,"WILLISTON",,,,,,,"2020-11-13 14:17:30.068871"
"90","Grand Bend","255901","78834","2222","17 Nobel Boulevard","193",,,"WILLISTON",,,,,,,"2020-11-13 14:17:30.088540"
"90","Grand Bend","255901","78834","2222","45 Green Second Blvd.","198",,,"WILLISTON",,,,,,,"2020-11-13 14:17:30.117727"
"94","Grand Bend","255901","78834","2222","568 Green Old Road","208",,,"WILLISTON",,,,,,,"2020-11-13 14:17:30.189709"
"90","Grand Bend","255901","78834","2222","573 North Milton Drive","216",,,"WILLISTON",,,,,,,"2020-11-13 14:17:30.242465"
"91","Grand Bend","255901","78834","2222","31 New Drive","287",,,"WILLISTON",,,,,,,"2020-11-13 14:17:30.734349"
"94","Grand Bend","255901","78834","2222","75 Green Milton Street","302",,,"WILLISTON",,,,,,,"2020-11-13 14:17:30.835875"
"91","Grand Bend","255901","78834","2222","873 Old Road","321",,,"WILLISTON",,,,,,,"2020-11-13 14:17:30.961583"
"90","Grand Bend","255901","78834","2222","215 First Parkway","353",,,"WILLISTON",,,,,,,"2020-11-13 14:17:31.161555"
"91","Grand Bend","255901","78834","2222","11 South White Second Way","359",,,"WILLISTON",,,,,,,"2020-11-13 14:17:31.206116"
"90","Grand Bend","255901","78834","2222","587 Rocky Clarendon Avenue","392",,,"WILLISTON",,,,,,,"2020-11-13 14:17:31.436534"
"90","Grand Bend","255901","78834","2222","58 New Road","396",,,"WILLISTON",,,,,,,"2020-11-13 14:17:31.460551"
"93","Grand Bend","255901","78834","2222","90 Fabien Parkway","423",,,"WILLISTON",,,,,,,"2020-11-13 14:17:31.631108"
"93","Grand Bend","255901","78834","2222","475 Rocky First Way","431",,,"WILLISTON",,,,,,,"2020-11-13 14:17:31.686139"
"90","Grand Bend","255901","78834","2222","29 West Green Cowley Way","434",,,"WILLISTON",,,,,,,"2020-11-13 14:17:31.711945"
"93","Grand Bend","255901","78834","2222","26 North Hague Way","441",,,"WILLISTON",,,,,,,"2020-11-13 14:17:31.745869"
"93","Grand Bend","255901","78834","2222","72 Green Old Blvd.","445",,,"WILLISTON",,,,,,,"2020-11-13 14:17:31.771450"
"93","Grand Bend","255901","78834","2222","58 Rocky Second Street","449",,,"WILLISTON",,,,,,,"2020-11-13 14:17:31.796598"
"93","Grand Bend","255901","78834","2222","74 South White Hague Parkway","451",,,"WILLISTON",,,,,,,"2020-11-13 14:17:31.821953"
"93","Grand Bend","255901","78834","2222","27 South Oak Street","456",,,"WILLISTON",,,,,,,"2020-11-13 14:17:31.849605"
"93","Grand Bend","255901","78834","2222","600 East Rocky Nobel Parkway","459",,,"WILLISTON",,,,,,,"2020-11-13 14:17:31.868854"
"93","Grand Bend","255901","78834","2222","418 Fabien Drive","461",,,"WILLISTON",,,,,,,"2020-11-13 14:17:31.891278"
"93","Grand Bend","255901","78834","2222","89 Rocky Oak Drive","472",,,"WILLISTON",,,,,,,"2020-11-13 14:17:31.944001"
"90","Grand Bend","255901","78834","2222","915 Oak Avenue","475",,,"WILLISTON",,,,,,,"2020-11-13 14:17:31.972554"
"93","Grand Bend","255901","78834","2222","47 South Rocky Hague Blvd.","482",,,"WILLISTON",,,,,,,"2020-11-13 14:17:32.022167"
"93","Grand Bend","255901","78834","2222","23 Fabien Road","488",,,"WILLISTON",,,,,,,"2020-11-13 14:17:32.053789"
"90","Grand Bend","255901","78834","2222","814 South Second Road","493",,,"WILLISTON",,,,,,,"2020-11-13 14:17:32.079032"
"90","Grand Bend","255901","78834","2222","35 Hague Freeway","498",,,"WILLISTON",,,,,,,"2020-11-13 14:17:32.105014"
"90","Grand Bend","255901","78834","2222","640 North Hague Way","501",,,"WILLISTON",,,,,,,"2020-11-13 14:17:32.127741"
"93","Grand Bend","255901","78834","2222","57 Rocky Milton Boulevard","504",,,"WILLISTON",,,,,,,"2020-11-13 14:17:32.153034"
"90","Grand Bend","255901","78834","2222","910 Clarendon Freeway","521",,,"WILLISTON",,,,,,,"2020-11-13 14:17:32.267074"
"93","Grand Bend","255901","78834","2222","754 South Second Boulevard","527",,,"WILLISTON",,,,,,,"2020-11-13 14:17:32.296428"
"93","Grand Bend","255901","78834","2222","75 Nobel Avenue","531",,,"WILLISTON",,,,,,,"2020-11-13 14:17:32.321219"
"93","Grand Bend","255901","78834","2222","29 Green Hague Boulevard","538",,,"WILLISTON",,,,,,,"2020-11-13 14:17:32.343996"
"90","Grand Bend","255901","78834","2222","615 Old Road","540",,,"WILLISTON",,,,,,,"2020-11-13 14:17:32.368883"
"99","Grand Bend","255901","78834","2222","30 North Milton Street","543",,,"WILLISTON",,,,,,,"2020-11-13 14:17:32.391625"
"93","Grand Bend","255901","78834","2222","911 Green Second Freeway","547",,,"WILLISTON",,,,,,,"2020-11-13 14:17:32.422799"
"99","Grand Bend","255901","78834","2222","65 Green Clarendon Freeway","556",,,"WILLISTON",,,,,,,"2020-11-13 14:17:32.493517"
"93","Grand Bend","255901","78834","2222","89 Second Avenue","562",,,"WILLISTON",,,,,,,"2020-11-13 14:17:32.539858"
"90","Grand Bend","255901","78834","2222","347 West Milton Avenue","566",,,"WILLISTON",,,,,,,"2020-11-13 14:17:32.567272"
"99","Grand Bend","255901","78834","2222","77 West Nobel Way","569",,,"WILLISTON",,,,,,,"2020-11-13 14:17:32.592546"
"99","Grand Bend","255901","78834","2222","263 New Blvd.","577",,,"WILLISTON",,,,,,,"2020-11-13 14:17:32.629627"
"99","Grand Bend","255901","78834","2222","63 Rocky Second Street","579",,,"WILLISTON",,,,,,,"2020-11-13 14:17:32.649704"
"99","Grand Bend","255901","78834","2222","15 White New Boulevard","582",,,"WILLISTON",,,,,,,"2020-11-13 14:17:32.678320"
"90","Grand Bend","255901","78834","2222","55 East Rocky Hague Freeway","608",,,"WILLISTON",,,,,,,"2020-11-13 14:17:32.833986"
"99","Grand Bend","255901","78834","2222","929 Hague Way","612",,,"WILLISTON",,,,,,,"2020-11-13 14:17:32.860937"
"93","Grand Bend","255901","78834","2222","76 New Street","616",,,"WILLISTON",,,,,,,"2020-11-13 14:17:32.887537"
"90","Grand Bend","255901","78834","2222","533 Rocky Milton Freeway","618",,,"WILLISTON",,,,,,,"2020-11-13 14:17:32.908483"
"99","Grand Bend","255901","78834","2222","63 Rocky Clarendon Drive","664",,,"WILLISTON",,,,,,,"2020-11-13 14:17:33.215279"
"99","Grand Bend","255901","78834","2222","712 Rocky Clarendon Road","671",,,"WILLISTON",,,,,,,"2020-11-13 14:17:33.246958"
"93","Grand Bend","255901","78834","2222","665 Cowley Blvd.","675",,,"WILLISTON",,,,,,,"2020-11-13 14:17:33.272369"
"99","Grand Bend","255901","78834","2222","20 West Hague Street","676",,,"WILLISTON",,,,,,,"2020-11-13 14:17:33.290472"
"99","Grand Bend","255901","78834","2222","160 Rocky Old Parkway","686",,,"WILLISTON",,,,,,,"2020-11-13 14:17:33.347863"
"85","Grand Bend","255901","78834","2222","450 North Second Avenue","691",,,"WILLISTON",,,,,,,"2020-11-13 14:17:33.374389"
"85","Grand Bend","255901","78834","2222","951 Nobel Freeway","695",,,"WILLISTON",,,,,,,"2020-11-13 14:17:33.397453"
"85","Grand Bend","255901","78834","2222","674 North New Way","699",,,"WILLISTON",,,,,,,"2020-11-13 14:17:33.419861"
"85","Grand Bend","255901","78834","2222","47 Rocky Second Boulevard","701",,,"WILLISTON",,,,,,,"2020-11-13 14:17:33.447789"
"85","Grand Bend","255901","78834","2222","923 Fabien Freeway","706",,,"WILLISTON",,,,,,,"2020-11-13 14:17:33.471826"
"85","Grand Bend","255901","78834","2222","42 Hague Parkway","711",,,"WILLISTON",,,,,,,"2020-11-13 14:17:33.499369"
"99","Grand Bend","255901","78834","2222","488 Hague Street","715",,,"WILLISTON",,,,,,,"2020-11-13 14:17:33.522945"
"85","Grand Bend","255901","78834","2222","299 Rocky Cowley Road","716",,,"WILLISTON",,,,,,,"2020-11-13 14:17:33.548778"
"90","Grand Bend","255901","78834","2222","81 Nobel Blvd.","116",,,"WILLISTON",,,,,,,"2020-11-13 14:17:29.302862"
"90","Grand Bend","255901","78834","2222","85 White Cowley Road","118",,,"WILLISTON",,,,,,,"2020-11-13 14:17:29.323498"
"90","Grand Bend","255901","78834","2222","222 West White Old Road","123",,,"WILLISTON",,,,,,,"2020-11-13 14:17:29.351800"
"90","Grand Bend","255901","78834","2222","746 Oak Blvd.","127",,,"WILLISTON",,,,,,,"2020-11-13 14:17:29.381216"
"90","Grand Bend","255901","78834","2222","11 Old Parkway","131",,,"WILLISTON",,,,,,,"2020-11-13 14:17:29.406419"
"90","Grand Bend","255901","78834","2222","96 Fabien Avenue","140",,,"WILLISTON",,,,,,,"2020-11-13 14:17:29.463716"
"90","Grand Bend","255901","78834","2222","239 Green Nobel Drive","142",,,"WILLISTON",,,,,,,"2020-11-13 14:17:29.481077"
"94","Grand Bend","255901","78834","2222","487 Green Oak Freeway","144",,,"WILLISTON",,,,,,,"2020-11-13 14:17:29.495891"
"90","Grand Bend","255901","78834","2222","430 North Hague Freeway","148",,,"WILLISTON",,,,,,,"2020-11-13 14:17:29.521031"
"94","Grand Bend","255901","78834","2222","184 Green Milton Way","151",,,"WILLISTON",,,,,,,"2020-11-13 14:17:29.538860"
"94","Grand Bend","255901","78834","2222","943 Green Milton Avenue","153",,,"WILLISTON",,,,,,,"2020-11-13 14:17:29.558469"
"90","Grand Bend","255901","78834","2222","412 South Green Hague Road","157",,,"WILLISTON",,,,,,,"2020-11-13 14:17:29.584138"
"94","Grand Bend","255901","78834","2222","58 East Oak Boulevard","161",,,"WILLISTON",,,,,,,"2020-11-13 14:17:29.606552"
"94","Grand Bend","255901","78834","2222","51 South Clarendon Boulevard","165",,,"WILLISTON",,,,,,,"2020-11-13 14:17:29.855017"
"94","Grand Bend","255901","78834","2222","130 Green Nobel Blvd.","169",,,"WILLISTON",,,,,,,"2020-11-13 14:17:29.886818"
"94","Grand Bend","255901","78834","2222","304 Milton Way","172",,,"WILLISTON",,,,,,,"2020-11-13 14:17:29.909329"
"94","Grand Bend","255901","78834","2222","67 First Boulevard","174",,,"WILLISTON",,,,,,,"2020-11-13 14:17:29.929948"
"94","Grand Bend","255901","78834","2222","426 North White Second Drive","176",,,"WILLISTON",,,,,,,"2020-11-13 14:17:29.938589"
"94","Grand Bend","255901","78834","2222","820 East White Oak Drive","178",,,"WILLISTON",,,,,,,"2020-11-13 14:17:29.952941"
"94","Grand Bend","255901","78834","2222","924 New Boulevard","182",,,"WILLISTON",,,,,,,"2020-11-13 14:17:29.976121"
"94","Grand Bend","255901","78834","2222","52 Fabien Freeway","180",,,"WILLISTON",,,,,,,"2020-11-13 14:17:29.992413"
"90","Grand Bend","255901","78834","2222","325 West Green Clarendon Way","187",,,"WILLISTON",,,,,,,"2020-11-13 14:17:30.038868"
"90","Grand Bend","255901","78834","2222","75 West White Clarendon Avenue","188",,,"WILLISTON",,,,,,,"2020-11-13 14:17:30.061633"
"90","Grand Bend","255901","78834","2222","147 White Second Parkway","191",,,"WILLISTON",,,,,,,"2020-11-13 14:17:30.069208"
"94","Grand Bend","255901","78834","2222","47 Milton Drive","195",,,"WILLISTON",,,,,,,"2020-11-13 14:17:30.096981"
"90","Grand Bend","255901","78834","2222","13 Fabien Way","199",,,"WILLISTON",,,,,,,"2020-11-13 14:17:30.126685"
"94","Grand Bend","255901","78834","2222","353 Hague Street","200",,,"WILLISTON",,,,,,,"2020-11-13 14:17:30.137739"
"90","Grand Bend","255901","78834","2222","668 Fabien Parkway","203",,,"WILLISTON",,,,,,,"2020-11-13 14:17:30.160253"
"94","Grand Bend","255901","78834","2222","58 South Rocky Clarendon Road","205",,,"WILLISTON",,,,,,,"2020-11-13 14:17:30.172627"
"90","Grand Bend","255901","78834","2222","185 West White Second Way","210",,,"WILLISTON",,,,,,,"2020-11-13 14:17:30.199662"
"94","Grand Bend","255901","78834","2222","364 First Avenue","211",,,"WILLISTON",,,,,,,"2020-11-13 14:17:30.211510"
"94","Grand Bend","255901","78834","2222","396 Hague Way","213",,,"WILLISTON",,,,,,,"2020-11-13 14:17:30.222293"
"94","Grand Bend","255901","78834","2222","866 Hague Freeway","218",,,"WILLISTON",,,,,,,"2020-11-13 14:17:30.248487"
"94","Grand Bend","255901","78834","2222","894 Rocky Milton Avenue","220",,,"WILLISTON",,,,,,,"2020-11-13 14:17:30.268736"
"94","Grand Bend","255901","78834","2222","75 Old Drive","223",,,"WILLISTON",,,,,,,"2020-11-13 14:17:30.292192"
"90","Grand Bend","255901","78834","2222","92 Old Drive","225",,,"WILLISTON",,,,,,,"2020-11-13 14:17:30.304011"
"90","Grand Bend","255901","78834","2222","19 Rocky Cowley Road","227",,,"WILLISTON",,,,,,,"2020-11-13 14:17:30.315801"
"94","Grand Bend","255901","78834","2222","807 West White Nobel Avenue","229",,,"WILLISTON",,,,,,,"2020-11-13 14:17:30.327842"
"90","Grand Bend","255901","78834","2222","741 Milton St.","231",,,"WILLISTON",,,,,,,"2020-11-13 14:17:30.340008"
"94","Grand Bend","255901","78834","2222","487 West New Blvd.","233",,,"WILLISTON",,,,,,,"2020-11-13 14:17:30.352484"
"94","Grand Bend","255901","78834","2222","92 Second Road","236",,,"WILLISTON",,,,,,,"2020-11-13 14:17:30.380049"
"90","Grand Bend","255901","78834","2222","25 East New Road","239",,,"WILLISTON",,,,,,,"2020-11-13 14:17:30.391247"
"94","Grand Bend","255901","78834","2222","929 Milton Drive","243",,,"WILLISTON",,,,,,,"2020-11-13 14:17:30.412801"
"90","Grand Bend","255901","78834","2222","96 Nobel Drive","246",,,"WILLISTON",,,,,,,"2020-11-13 14:17:30.436204"
"94","Grand Bend","255901","78834","2222","362 Rocky Oak Street","247",,,"WILLISTON",,,,,,,"2020-11-13 14:17:30.445497"
"94","Grand Bend","255901","78834","2222","44 First Parkway","250",,,"WILLISTON",,,,,,,"2020-11-13 14:17:30.469023"
"94","Grand Bend","255901","78834","2222","345 Old Way","253",,,"WILLISTON",,,,,,,"2020-11-13 14:17:30.506094"
"90","Grand Bend","255901","78834","2222","56 White Clarendon Way","257",,,"WILLISTON",,,,,,,"2020-11-13 14:17:30.530953"
"90","Grand Bend","255901","78834","2222","949 New Way","263",,,"WILLISTON",,,,,,,"2020-11-13 14:17:30.566423"
"90","Grand Bend","255901","78834","2222","859 Second St.","264",,,"WILLISTON",,,,,,,"2020-11-13 14:17:30.575996"
"94","Grand Bend","255901","78834","2222","451 Rocky Oak Boulevard","265",,,"WILLISTON",,,,,,,"2020-11-13 14:17:30.584980"
"94","Grand Bend","255901","78834","2222","27 West White Clarendon Boulevard","266",,,"WILLISTON",,,,,,,"2020-11-13 14:17:30.593105"
"91","Grand Bend","255901","78834","2222","998 White Fabien Boulevard","268",,,"WILLISTON",,,,,,,"2020-11-13 14:17:30.603682"
"90","Grand Bend","255901","78834","2222","56 Old Boulevard","269",,,"WILLISTON",,,,,,,"2020-11-13 14:17:30.613731"
"90","Grand Bend","255901","78834","2222","50 Rocky Second St.","271",,,"WILLISTON",,,,,,,"2020-11-13 14:17:30.623727"
"90","Grand Bend","255901","78834","2222","523 Oak Street","274",,,"WILLISTON",,,,,,,"2020-11-13 14:17:30.644502"
"94","Grand Bend","255901","78834","2222","57 Green First Road","277",,,"WILLISTON",,,,,,,"2020-11-13 14:17:30.665337"
"94","Grand Bend","255901","78834","2222","485 Rocky New Boulevard","279",,,"WILLISTON",,,,,,,"2020-11-13 14:17:30.677554"
"91","Grand Bend","255901","78834","2222","465 Green Clarendon Parkway","280",,,"WILLISTON",,,,,,,"2020-11-13 14:17:30.687596"
"91","Grand Bend","255901","78834","2222","92 Cowley Parkway","283",,,"WILLISTON",,,,,,,"2020-11-13 14:17:30.705044"
"94","Grand Bend","255901","78834","2222","398 Second Freeway","285",,,"WILLISTON",,,,,,,"2020-11-13 14:17:30.717549"
"90","Grand Bend","255901","78834","2222","453 East New Avenue","289",,,"WILLISTON",,,,,,,"2020-11-13 14:17:30.738777"
"91","Grand Bend","255901","78834","2222","12 East White Clarendon Street","293",,,"WILLISTON",,,,,,,"2020-11-13 14:17:30.774723"
"91","Grand Bend","255901","78834","2222","493 Green Second Freeway","296",,,"WILLISTON",,,,,,,"2020-11-13 14:17:30.793417"
"90","Grand Bend","255901","78834","2222","53 Oak St.","297",,,"WILLISTON",,,,,,,"2020-11-13 14:17:30.802702"
"91","Grand Bend","255901","78834","2222","30 New Way","299",,,"WILLISTON",,,,,,,"2020-11-13 14:17:30.814018"
"91","Grand Bend","255901","78834","2222","39 Green Milton Road","304",,,"WILLISTON",,,,,,,"2020-11-13 14:17:30.843984"
"91","Grand Bend","255901","78834","2222","830 Rocky Second Boulevard","305",,,"WILLISTON",,,,,,,"2020-11-13 14:17:30.857023"
"90","Grand Bend","255901","78834","2222","36 Rocky Hague Road","307",,,"WILLISTON",,,,,,,"2020-11-13 14:17:30.867177"
"90","Grand Bend","255901","78834","2222","750 Hague Blvd.","309",,,"WILLISTON",,,,,,,"2020-11-13 14:17:30.882860"
"90","Grand Bend","255901","78834","2222","113 Fabien Way","201",,,"WILLISTON",,,,,,,"2020-11-13 14:17:30.142383"
"94","Grand Bend","255901","78834","2222","321 Second Freeway","206",,,"WILLISTON",,,,,,,"2020-11-13 14:17:30.174216"
"94","Grand Bend","255901","78834","2222","815 Milton Avenue","209",,,"WILLISTON",,,,,,,"2020-11-13 14:17:30.197151"
"94","Grand Bend","255901","78834","2222","474 First Avenue","212",,,"WILLISTON",,,,,,,"2020-11-13 14:17:30.214966"
"94","Grand Bend","255901","78834","2222","893 Nobel Blvd.","214",,,"WILLISTON",,,,,,,"2020-11-13 14:17:30.225158"
"90","Grand Bend","255901","78834","2222","512 Green Hague Blvd.","217",,,"WILLISTON",,,,,,,"2020-11-13 14:17:30.245894"
"94","Grand Bend","255901","78834","2222","191 West White Hague Parkway","219",,,"WILLISTON",,,,,,,"2020-11-13 14:17:30.263733"
"90","Grand Bend","255901","78834","2222","209 North Fabien Way","222",,,"WILLISTON",,,,,,,"2020-11-13 14:17:30.273308"
"94","Grand Bend","255901","78834","2222","196 North Nobel Boulevard","224",,,"WILLISTON",,,,,,,"2020-11-13 14:17:30.295560"
"94","Grand Bend","255901","78834","2222","944 West Green Fabien Boulevard","226",,,"WILLISTON",,,,,,,"2020-11-13 14:17:30.304210"
"94","Grand Bend","255901","78834","2222","52 New Blvd.","230",,,"WILLISTON",,,,,,,"2020-11-13 14:17:30.330333"
"94","Grand Bend","255901","78834","2222","94 East White Old St.","232",,,"WILLISTON",,,,,,,"2020-11-13 14:17:30.342949"
"90","Grand Bend","255901","78834","2222","309 Nobel Parkway","235",,,"WILLISTON",,,,,,,"2020-11-13 14:17:30.365417"
"90","Grand Bend","255901","78834","2222","887 Oak Boulevard","238",,,"WILLISTON",,,,,,,"2020-11-13 14:17:30.384527"
"90","Grand Bend","255901","78834","2222","478 Hague Parkway","240",,,"WILLISTON",,,,,,,"2020-11-13 14:17:30.397424"
"94","Grand Bend","255901","78834","2222","89 Hague Freeway","241",,,"WILLISTON",,,,,,,"2020-11-13 14:17:30.408072"
"94","Grand Bend","255901","78834","2222","95 North Rocky Fabien Boulevard","244",,,"WILLISTON",,,,,,,"2020-11-13 14:17:30.430331"
"90","Grand Bend","255901","78834","2222","328 Old Freeway","245",,,"WILLISTON",,,,,,,"2020-11-13 14:17:30.441531"
"94","Grand Bend","255901","78834","2222","120 White Oak Avenue","248",,,"WILLISTON",,,,,,,"2020-11-13 14:17:30.464069"
"94","Grand Bend","255901","78834","2222","97 Cowley Street","251",,,"WILLISTON",,,,,,,"2020-11-13 14:17:30.473289"
"94","Grand Bend","255901","78834","2222","434 Oak Boulevard","252",,,"WILLISTON",,,,,,,"2020-11-13 14:17:30.497836"
"90","Grand Bend","255901","78834","2222","12 South Hague Way","255",,,"WILLISTON",,,,,,,"2020-11-13 14:17:30.514806"
"94","Grand Bend","255901","78834","2222","62 Second Freeway","256",,,"WILLISTON",,,,,,,"2020-11-13 14:17:30.523100"
"94","Grand Bend","255901","78834","2222","662 Green Second Boulevard","258",,,"WILLISTON",,,,,,,"2020-11-13 14:17:30.535337"
"94","Grand Bend","255901","78834","2222","354 Rocky Old Street","260",,,"WILLISTON",,,,,,,"2020-11-13 14:17:30.547384"
"94","Grand Bend","255901","78834","2222","61 First Drive","262",,,"WILLISTON",,,,,,,"2020-11-13 14:17:30.566091"
"90","Grand Bend","255901","78834","2222","29 West Rocky Clarendon Freeway","267",,,"WILLISTON",,,,,,,"2020-11-13 14:17:30.588854"
"91","Grand Bend","255901","78834","2222","15 Fabien Avenue","273",,,"WILLISTON",,,,,,,"2020-11-13 14:17:30.638782"
"91","Grand Bend","255901","78834","2222","183 Oak Drive","276",,,"WILLISTON",,,,,,,"2020-11-13 14:17:30.656886"
"94","Grand Bend","255901","78834","2222","82 South White Fabien Way","281",,,"WILLISTON",,,,,,,"2020-11-13 14:17:30.690383"
"90","Grand Bend","255901","78834","2222","35 Green Nobel Road","284",,,"WILLISTON",,,,,,,"2020-11-13 14:17:30.711887"
"91","Grand Bend","255901","78834","2222","75 North White Oak Freeway","286",,,"WILLISTON",,,,,,,"2020-11-13 14:17:30.730437"
"91","Grand Bend","255901","78834","2222","59 North Cowley Boulevard","288",,,"WILLISTON",,,,,,,"2020-11-13 14:17:30.744202"
"90","Grand Bend","255901","78834","2222","10 Green Second Parkway","291",,,"WILLISTON",,,,,,,"2020-11-13 14:17:30.761681"
"94","Grand Bend","255901","78834","2222","89 East Second Drive","294",,,"WILLISTON",,,,,,,"2020-11-13 14:17:30.783595"
"91","Grand Bend","255901","78834","2222","967 First Drive","298",,,"WILLISTON",,,,,,,"2020-11-13 14:17:30.809937"
"90","Grand Bend","255901","78834","2222","92 West Second St.","300",,,"WILLISTON",,,,,,,"2020-11-13 14:17:30.818847"
"90","Grand Bend","255901","78834","2222","448 White Hague Road","301",,,"WILLISTON",,,,,,,"2020-11-13 14:17:30.829377"
"94","Grand Bend","255901","78834","2222","81 Rocky First St.","303",,,"WILLISTON",,,,,,,"2020-11-13 14:17:30.840742"
"91","Grand Bend","255901","78834","2222","94 Milton Road","306",,,"WILLISTON",,,,,,,"2020-11-13 14:17:30.859096"
"91","Grand Bend","255901","78834","2222","74 West Fabien Way","308",,,"WILLISTON",,,,,,,"2020-11-13 14:17:30.869613"
"91","Grand Bend","255901","78834","2222","37 Fabien Street","310",,,"WILLISTON",,,,,,,"2020-11-13 14:17:30.883994"
"90","Grand Bend","255901","78834","2222","900 Fabien Street","312",,,"WILLISTON",,,,,,,"2020-11-13 14:17:30.898444"
"91","Grand Bend","255901","78834","2222","92 North Nobel Avenue","314",,,"WILLISTON",,,,,,,"2020-11-13 14:17:30.911462"
"91","Grand Bend","255901","78834","2222","28 Rocky Second Way","316",,,"WILLISTON",,,,,,,"2020-11-13 14:17:30.925046"
"91","Grand Bend","255901","78834","2222","36 Rocky Nobel St.","317",,,"WILLISTON",,,,,,,"2020-11-13 14:17:30.935880"
"91","Grand Bend","255901","78834","2222","96 East First Road","322",,,"WILLISTON",,,,,,,"2020-11-13 14:17:30.970715"
"91","Grand Bend","255901","78834","2222","54 Rocky Fabien Avenue","328",,,"WILLISTON",,,,,,,"2020-11-13 14:17:31.005768"
"90","Grand Bend","255901","78834","2222","26 Milton Parkway","333",,,"WILLISTON",,,,,,,"2020-11-13 14:17:31.040093"
"90","Grand Bend","255901","78834","2222","173 South Green New Street","337",,,"WILLISTON",,,,,,,"2020-11-13 14:17:31.062283"
"91","Grand Bend","255901","78834","2222","27 North New Avenue","338",,,"WILLISTON",,,,,,,"2020-11-13 14:17:31.075527"
"90","Grand Bend","255901","78834","2222","627 Rocky Clarendon St.","341",,,"WILLISTON",,,,,,,"2020-11-13 14:17:31.088287"
"91","Grand Bend","255901","78834","2222","77 East First Avenue","342",,,"WILLISTON",,,,,,,"2020-11-13 14:17:31.108623"
"91","Grand Bend","255901","78834","2222","767 Rocky Nobel Street","346",,,"WILLISTON",,,,,,,"2020-11-13 14:17:31.118906"
"91","Grand Bend","255901","78834","2222","47 Rocky Cowley Avenue","348",,,"WILLISTON",,,,,,,"2020-11-13 14:17:31.127317"
"91","Grand Bend","255901","78834","2222","432 Hague St.","349",,,"WILLISTON",,,,,,,"2020-11-13 14:17:31.137355"
"91","Grand Bend","255901","78834","2222","99 West Rocky Oak Way","352",,,"WILLISTON",,,,,,,"2020-11-13 14:17:31.154283"
"91","Grand Bend","255901","78834","2222","897 Green Cowley Street","354",,,"WILLISTON",,,,,,,"2020-11-13 14:17:31.171246"
"91","Grand Bend","255901","78834","2222","434 Green Clarendon Road","356",,,"WILLISTON",,,,,,,"2020-11-13 14:17:31.183973"
"91","Grand Bend","255901","78834","2222","619 Old St.","361",,,"WILLISTON",,,,,,,"2020-11-13 14:17:31.214312"
"91","Grand Bend","255901","78834","2222","762 East Fabien Drive","368",,,"WILLISTON",,,,,,,"2020-11-13 14:17:31.260036"
"91","Grand Bend","255901","78834","2222","85 Clarendon Freeway","370",,,"WILLISTON",,,,,,,"2020-11-13 14:17:31.280829"
"90","Grand Bend","255901","78834","2222","96 Nobel Drive","374",,,"WILLISTON",,,,,,,"2020-11-13 14:17:31.309252"
"90","Grand Bend","255901","78834","2222","130 East Green Second Boulevard","379",,,"WILLISTON",,,,,,,"2020-11-13 14:17:31.332991"
"91","Grand Bend","255901","78834","2222","522 South Second Parkway","381",,,"WILLISTON",,,,,,,"2020-11-13 14:17:31.350510"
"90","Grand Bend","255901","78834","2222","14 Green New St.","385",,,"WILLISTON",,,,,,,"2020-11-13 14:17:31.389677"
"90","Grand Bend","255901","78834","2222","105 Old Freeway","389",,,"WILLISTON",,,,,,,"2020-11-13 14:17:31.412694"
"91","Grand Bend","255901","78834","2222","510 East Green Old Way","391",,,"WILLISTON",,,,,,,"2020-11-13 14:17:31.429682"
"93","Grand Bend","255901","78834","2222","420 White Hague Boulevard","394",,,"WILLISTON",,,,,,,"2020-11-13 14:17:31.441379"
"90","Grand Bend","255901","78834","2222","51 Green New St.","398",,,"WILLISTON",,,,,,,"2020-11-13 14:17:31.469695"
"91","Grand Bend","255901","78834","2222","448 Oak St.","311",,,"WILLISTON",,,,,,,"2020-11-13 14:17:30.893876"
"91","Grand Bend","255901","78834","2222","985 First Boulevard","313",,,"WILLISTON",,,,,,,"2020-11-13 14:17:30.909821"
"91","Grand Bend","255901","78834","2222","843 Green Fabien Way","315",,,"WILLISTON",,,,,,,"2020-11-13 14:17:30.920534"
"90","Grand Bend","255901","78834","2222","82 Rocky Fabien Avenue","320",,,"WILLISTON",,,,,,,"2020-11-13 14:17:30.946280"
"90","Grand Bend","255901","78834","2222","63 Clarendon Avenue","323",,,"WILLISTON",,,,,,,"2020-11-13 14:17:30.969873"
"91","Grand Bend","255901","78834","2222","634 North Rocky Clarendon Road","324",,,"WILLISTON",,,,,,,"2020-11-13 14:17:30.979437"
"91","Grand Bend","255901","78834","2222","650 First Drive","325",,,"WILLISTON",,,,,,,"2020-11-13 14:17:30.987686"
"91","Grand Bend","255901","78834","2222","42 First Street","327",,,"WILLISTON",,,,,,,"2020-11-13 14:17:30.995768"
"91","Grand Bend","255901","78834","2222","394 Green Hague Way","330",,,"WILLISTON",,,,,,,"2020-11-13 14:17:31.016087"
"91","Grand Bend","255901","78834","2222","866 West Milton Road","331",,,"WILLISTON",,,,,,,"2020-11-13 14:17:31.023705"
"91","Grand Bend","255901","78834","2222","814 North Oak Road","332",,,"WILLISTON",,,,,,,"2020-11-13 14:17:31.032277"
"90","Grand Bend","255901","78834","2222","468 Milton Street","335",,,"WILLISTON",,,,,,,"2020-11-13 14:17:31.047865"
"90","Grand Bend","255901","78834","2222","14 Hague Blvd.","336",,,"WILLISTON",,,,,,,"2020-11-13 14:17:31.056896"
"91","Grand Bend","255901","78834","2222","824 Clarendon Avenue","340",,,"WILLISTON",,,,,,,"2020-11-13 14:17:31.063533"
"91","Grand Bend","255901","78834","2222","808 Nobel St.","339",,,"WILLISTON",,,,,,,"2020-11-13 14:17:31.084156"
"90","Grand Bend","255901","78834","2222","196 North First Boulevard","343",,,"WILLISTON",,,,,,,"2020-11-13 14:17:31.092035"
"90","Grand Bend","255901","78834","2222","45 Hague Freeway","344",,,"WILLISTON",,,,,,,"2020-11-13 14:17:31.102046"
"90","Grand Bend","255901","78834","2222","75 East Clarendon Boulevard","350",,,"WILLISTON",,,,,,,"2020-11-13 14:17:31.145513"
"90","Grand Bend","255901","78834","2222","433 South Rocky Old Street","355",,,"WILLISTON",,,,,,,"2020-11-13 14:17:31.180254"
"90","Grand Bend","255901","78834","2222","55 East Rocky Second St.","360",,,"WILLISTON",,,,,,,"2020-11-13 14:17:31.208541"
"91","Grand Bend","255901","78834","2222","361 Old St.","363",,,"WILLISTON",,,,,,,"2020-11-13 14:17:31.229754"
"91","Grand Bend","255901","78834","2222","71 Milton St.","365",,,"WILLISTON",,,,,,,"2020-11-13 14:17:31.242424"
"90","Grand Bend","255901","78834","2222","60 First St.","366",,,"WILLISTON",,,,,,,"2020-11-13 14:17:31.253398"
"90","Grand Bend","255901","78834","2222","25 Fabien Blvd.","369",,,"WILLISTON",,,,,,,"2020-11-13 14:17:31.271242"
"90","Grand Bend","255901","78834","2222","867 Cowley Blvd.","372",,,"WILLISTON",,,,,,,"2020-11-13 14:17:31.281030"
"91","Grand Bend","255901","78834","2222","389 Fabien Parkway","373",,,"WILLISTON",,,,,,,"2020-11-13 14:17:31.299032"
"91","Grand Bend","255901","78834","2222","58 East Old Freeway","375",,,"WILLISTON",,,,,,,"2020-11-13 14:17:31.308729"
"90","Grand Bend","255901","78834","2222","754 North Clarendon Avenue","378",,,"WILLISTON",,,,,,,"2020-11-13 14:17:31.332963"
"90","Grand Bend","255901","78834","2222","817 South White Fabien Avenue","383",,,"WILLISTON",,,,,,,"2020-11-13 14:17:31.357045"
"91","Grand Bend","255901","78834","2222","369 First Street","384",,,"WILLISTON",,,,,,,"2020-11-13 14:17:31.389769"
"91","Grand Bend","255901","78834","2222","86 Old Freeway","387",,,"WILLISTON",,,,,,,"2020-11-13 14:17:31.402193"
"91","Grand Bend","255901","78834","2222","474 West Hague St.","388",,,"WILLISTON",,,,,,,"2020-11-13 14:17:31.412437"
"91","Grand Bend","255901","78834","2222","44 Second Freeway","393",,,"WILLISTON",,,,,,,"2020-11-13 14:17:31.444176"
"93","Grand Bend","255901","78834","2222","18 White First St.","395",,,"WILLISTON",,,,,,,"2020-11-13 14:17:31.455289"
"90","Grand Bend","255901","78834","2222","146 First Freeway","397",,,"WILLISTON",,,,,,,"2020-11-13 14:17:31.464204"
"91","Grand Bend","255901","78834","2222","621 Nobel Road","399",,,"WILLISTON",,,,,,,"2020-11-13 14:17:31.480966"
"91","Grand Bend","255901","78834","2222","68 Green Milton Blvd.","401",,,"WILLISTON",,,,,,,"2020-11-13 14:17:31.490917"
"90","Grand Bend","255901","78834","2222","588 White Old St.","403",,,"WILLISTON",,,,,,,"2020-11-13 14:17:31.499095"
"93","Grand Bend","255901","78834","2222","47 West Old Parkway","402",,,"WILLISTON",,,,,,,"2020-11-13 14:17:31.506681"
"90","Grand Bend","255901","78834","2222","643 Oak Blvd.","404",,,"WILLISTON",,,,,,,"2020-11-13 14:17:31.514770"
"93","Grand Bend","255901","78834","2222","68 Second Blvd.","406",,,"WILLISTON",,,,,,,"2020-11-13 14:17:31.522891"
"90","Grand Bend","255901","78834","2222","193 Rocky Old St.","409",,,"WILLISTON",,,,,,,"2020-11-13 14:17:31.535970"
"93","Grand Bend","255901","78834","2222","23 Oak St.","410",,,"WILLISTON",,,,,,,"2020-11-13 14:17:31.546632"
"90","Grand Bend","255901","78834","2222","163 East Green Cowley Drive","413",,,"WILLISTON",,,,,,,"2020-11-13 14:17:31.582157"
"93","Grand Bend","255901","78834","2222","51 Cowley Blvd.","417",,,"WILLISTON",,,,,,,"2020-11-13 14:17:31.591784"
"93","Grand Bend","255901","78834","2222","96 Milton Way","419",,,"WILLISTON",,,,,,,"2020-11-13 14:17:31.606501"
"93","Grand Bend","255901","78834","2222","22 White Hague St.","420",,,"WILLISTON",,,,,,,"2020-11-13 14:17:31.613839"
"90","Grand Bend","255901","78834","2222","56 Clarendon Blvd.","424",,,"WILLISTON",,,,,,,"2020-11-13 14:17:31.639989"
"90","Grand Bend","255901","78834","2222","74 Cowley St.","428",,,"WILLISTON",,,,,,,"2020-11-13 14:17:31.665827"
"93","Grand Bend","255901","78834","2222","546 North Fabien Boulevard","430",,,"WILLISTON",,,,,,,"2020-11-13 14:17:31.684480"
"90","Grand Bend","255901","78834","2222","12 New Avenue","432",,,"WILLISTON",,,,,,,"2020-11-13 14:17:31.693781"
"90","Grand Bend","255901","78834","2222","783 Fabien Street","435",,,"WILLISTON",,,,,,,"2020-11-13 14:17:31.716634"
"90","Grand Bend","255901","78834","2222","60 First Avenue","439",,,"WILLISTON",,,,,,,"2020-11-13 14:17:31.741244"
"90","Grand Bend","255901","78834","2222","991 New Freeway","443",,,"WILLISTON",,,,,,,"2020-11-13 14:17:31.766363"
"93","Grand Bend","255901","78834","2222","39 Fabien Boulevard","447",,,"WILLISTON",,,,,,,"2020-11-13 14:17:31.793770"
"93","Grand Bend","255901","78834","2222","81 Green First Freeway","450",,,"WILLISTON",,,,,,,"2020-11-13 14:17:31.818919"
"93","Grand Bend","255901","78834","2222","79 White Old Way","454",,,"WILLISTON",,,,,,,"2020-11-13 14:17:31.844173"
"90","Grand Bend","255901","78834","2222","66 South Oak Drive","462",,,"WILLISTON",,,,,,,"2020-11-13 14:17:31.875510"
"93","Grand Bend","255901","78834","2222","636 Second Parkway","464",,,"WILLISTON",,,,,,,"2020-11-13 14:17:31.894813"
"90","Grand Bend","255901","78834","2222","58 Old Street","467",,,"WILLISTON",,,,,,,"2020-11-13 14:17:31.916383"
"93","Grand Bend","255901","78834","2222","524 Green New Boulevard","469",,,"WILLISTON",,,,,,,"2020-11-13 14:17:31.925449"
"90","Grand Bend","255901","78834","2222","53 Old Boulevard","471",,,"WILLISTON",,,,,,,"2020-11-13 14:17:31.944430"
"93","Grand Bend","255901","78834","2222","59 Rocky Hague Drive","474",,,"WILLISTON",,,,,,,"2020-11-13 14:17:31.968579"
"93","Grand Bend","255901","78834","2222","50 Second Boulevard","477",,,"WILLISTON",,,,,,,"2020-11-13 14:17:31.978339"
"90","Grand Bend","255901","78834","2222","420 East Rocky Cowley Boulevard","479",,,"WILLISTON",,,,,,,"2020-11-13 14:17:32.001688"
"90","Grand Bend","255901","78834","2222","83 Green Cowley Parkway","485",,,"WILLISTON",,,,,,,"2020-11-13 14:17:32.027209"
"93","Grand Bend","255901","78834","2222","93 First Freeway","486",,,"WILLISTON",,,,,,,"2020-11-13 14:17:32.049541"
"90","Grand Bend","255901","78834","2222","33 New St.","490",,,"WILLISTON",,,,,,,"2020-11-13 14:17:32.074722"
"93","Grand Bend","255901","78834","2222","709 East Hague St.","494",,,"WILLISTON",,,,,,,"2020-11-13 14:17:32.098799"
"93","Grand Bend","255901","78834","2222","284 Rocky Oak St.","497",,,"WILLISTON",,,,,,,"2020-11-13 14:17:32.123712"
"90","Grand Bend","255901","78834","2222","117 North Hague Boulevard","503",,,"WILLISTON",,,,,,,"2020-11-13 14:17:32.153822"
"93","Grand Bend","255901","78834","2222","971 Cowley Boulevard","405",,,"WILLISTON",,,,,,,"2020-11-13 14:17:31.506508"
"93","Grand Bend","255901","78834","2222","211 East Fabien Avenue","411",,,"WILLISTON",,,,,,,"2020-11-13 14:17:31.556975"
"93","Grand Bend","255901","78834","2222","569 New Parkway","412",,,"WILLISTON",,,,,,,"2020-11-13 14:17:31.566531"
"93","Grand Bend","255901","78834","2222","739 Nobel Avenue","415",,,"WILLISTON",,,,,,,"2020-11-13 14:17:31.576170"
"93","Grand Bend","255901","78834","2222","660 East Green Fabien Avenue","416",,,"WILLISTON",,,,,,,"2020-11-13 14:17:31.589132"
"93","Grand Bend","255901","78834","2222","34 South Green Milton Boulevard","418",,,"WILLISTON",,,,,,,"2020-11-13 14:17:31.608260"
"90","Grand Bend","255901","78834","2222","246 Green Fabien Drive","422",,,"WILLISTON",,,,,,,"2020-11-13 14:17:31.616481"
"93","Grand Bend","255901","78834","2222","29 Green Milton St.","425",,,"WILLISTON",,,,,,,"2020-11-13 14:17:31.639826"
"93","Grand Bend","255901","78834","2222","37 Hague Freeway","426",,,"WILLISTON",,,,,,,"2020-11-13 14:17:31.657311"
"93","Grand Bend","255901","78834","2222","972 White Milton Street","429",,,"WILLISTON",,,,,,,"2020-11-13 14:17:31.667515"
"93","Grand Bend","255901","78834","2222","43 Rocky New Drive","433",,,"WILLISTON",,,,,,,"2020-11-13 14:17:31.692987"
"93","Grand Bend","255901","78834","2222","216 North White Fabien Drive","436",,,"WILLISTON",,,,,,,"2020-11-13 14:17:31.716834"
"91","Grand Bend","255901","78834","2222","84 Fabien St.","438",,,"WILLISTON",,,,,,,"2020-11-13 14:17:31.740840"
"90","Grand Bend","255901","78834","2222","63 Green Cowley Avenue","442",,,"WILLISTON",,,,,,,"2020-11-13 14:17:31.766224"
"93","Grand Bend","255901","78834","2222","32 Green Second Blvd.","448",,,"WILLISTON",,,,,,,"2020-11-13 14:17:31.794555"
"93","Grand Bend","255901","78834","2222","24 North Hague Street","453",,,"WILLISTON",,,,,,,"2020-11-13 14:17:31.821710"
"93","Grand Bend","255901","78834","2222","416 West White Clarendon Boulevard","455",,,"WILLISTON",,,,,,,"2020-11-13 14:17:31.844193"
"93","Grand Bend","255901","78834","2222","36 White Milton Road","458",,,"WILLISTON",,,,,,,"2020-11-13 14:17:31.867405"
"90","Grand Bend","255901","78834","2222","490 Green Oak Street","465",,,"WILLISTON",,,,,,,"2020-11-13 14:17:31.901012"
"90","Grand Bend","255901","78834","2222","42 First Drive","468",,,"WILLISTON",,,,,,,"2020-11-13 14:17:31.923055"
"90","Grand Bend","255901","78834","2222","860 Green Clarendon Road","470",,,"WILLISTON",,,,,,,"2020-11-13 14:17:31.955449"
"93","Grand Bend","255901","78834","2222","359 Rocky Second Avenue","476",,,"WILLISTON",,,,,,,"2020-11-13 14:17:31.979983"
"90","Grand Bend","255901","78834","2222","306 North Green First Way","480",,,"WILLISTON",,,,,,,"2020-11-13 14:17:32.003969"
"90","Grand Bend","255901","78834","2222","963 First Boulevard","484",,,"WILLISTON",,,,,,,"2020-11-13 14:17:32.028773"
"93","Grand Bend","255901","78834","2222","619 Cowley St.","487",,,"WILLISTON",,,,,,,"2020-11-13 14:17:32.050407"
"90","Grand Bend","255901","78834","2222","37 Fabien Drive","492",,,"WILLISTON",,,,,,,"2020-11-13 14:17:32.075824"
"93","Grand Bend","255901","78834","2222","55 Green Milton Drive","496",,,"WILLISTON",,,,,,,"2020-11-13 14:17:32.099968"
"93","Grand Bend","255901","78834","2222","660 New Drive","499",,,"WILLISTON",,,,,,,"2020-11-13 14:17:32.126437"
"90","Grand Bend","255901","78834","2222","90 East Hague Blvd.","502",,,"WILLISTON",,,,,,,"2020-11-13 14:17:32.150534"
"93","Grand Bend","255901","78834","2222","61 White Second Freeway","505",,,"WILLISTON",,,,,,,"2020-11-13 14:17:32.160405"
"90","Grand Bend","255901","78834","2222","418 White Fabien Freeway","508",,,"WILLISTON",,,,,,,"2020-11-13 14:17:32.179407"
"93","Grand Bend","255901","78834","2222","337 East New Parkway","512",,,"WILLISTON",,,,,,,"2020-11-13 14:17:32.200690"
"90","Grand Bend","255901","78834","2222","74 Cowley Street","513",,,"WILLISTON",,,,,,,"2020-11-13 14:17:32.224938"
"90","Grand Bend","255901","78834","2222","22 White Oak Way","520",,,"WILLISTON",,,,,,,"2020-11-13 14:17:32.247459"
"93","Grand Bend","255901","78834","2222","96 Cowley Parkway","522",,,"WILLISTON",,,,,,,"2020-11-13 14:17:32.270593"
"93","Grand Bend","255901","78834","2222","92 South White Oak Road","526",,,"WILLISTON",,,,,,,"2020-11-13 14:17:32.292179"
"90","Grand Bend","255901","78834","2222","58 White Oak Boulevard","529",,,"WILLISTON",,,,,,,"2020-11-13 14:17:32.317833"
"90","Grand Bend","255901","78834","2222","414 New Freeway","534",,,"WILLISTON",,,,,,,"2020-11-13 14:17:32.341442"
"90","Grand Bend","255901","78834","2222","16 Nobel Parkway","537",,,"WILLISTON",,,,,,,"2020-11-13 14:17:32.367663"
"93","Grand Bend","255901","78834","2222","572 Clarendon Road","544",,,"WILLISTON",,,,,,,"2020-11-13 14:17:32.392529"
"90","Grand Bend","255901","78834","2222","987 Fabien Boulevard","548",,,"WILLISTON",,,,,,,"2020-11-13 14:17:32.422646"
"90","Grand Bend","255901","78834","2222","72 Rocky Clarendon Road","551",,,"WILLISTON",,,,,,,"2020-11-13 14:17:32.444468"
"99","Grand Bend","255901","78834","2222","817 First Parkway","554",,,"WILLISTON",,,,,,,"2020-11-13 14:17:32.465795"
"99","Grand Bend","255901","78834","2222","195 Green Second Road","557",,,"WILLISTON",,,,,,,"2020-11-13 14:17:32.493556"
"93","Grand Bend","255901","78834","2222","36 Old Freeway","560",,,"WILLISTON",,,,,,,"2020-11-13 14:17:32.520690"
"99","Grand Bend","255901","78834","2222","547 White Cowley St.","563",,,"WILLISTON",,,,,,,"2020-11-13 14:17:32.545608"
"99","Grand Bend","255901","78834","2222","270 Green First Road","568",,,"WILLISTON",,,,,,,"2020-11-13 14:17:32.572793"
"99","Grand Bend","255901","78834","2222","40 Clarendon Way","571",,,"WILLISTON",,,,,,,"2020-11-13 14:17:32.597830"
"99","Grand Bend","255901","78834","2222","26 South Green Clarendon Drive","575",,,"WILLISTON",,,,,,,"2020-11-13 14:17:32.625260"
"90","Grand Bend","255901","78834","2222","39 Second Street","578",,,"WILLISTON",,,,,,,"2020-11-13 14:17:32.648163"
"90","Grand Bend","255901","78834","2222","85 Rocky New Street","585",,,"WILLISTON",,,,,,,"2020-11-13 14:17:32.687686"
"90","Grand Bend","255901","78834","2222","89 South Second Blvd.","586",,,"WILLISTON",,,,,,,"2020-11-13 14:17:32.702422"
"99","Grand Bend","255901","78834","2222","939 White Fabien St.","591",,,"WILLISTON",,,,,,,"2020-11-13 14:17:32.726367"
"99","Grand Bend","255901","78834","2222","608 North Old Street","595",,,"WILLISTON",,,,,,,"2020-11-13 14:17:32.754961"
"99","Grand Bend","255901","78834","2222","727 First Avenue","597",,,"WILLISTON",,,,,,,"2020-11-13 14:17:32.770339"
"99","Grand Bend","255901","78834","2222","91 East Oak St.","599",,,"WILLISTON",,,,,,,"2020-11-13 14:17:32.779455"
"99","Grand Bend","255901","78834","2222","79 Rocky Milton Avenue","602",,,"WILLISTON",,,,,,,"2020-11-13 14:17:32.804595"
"90","Grand Bend","255901","78834","2222","946 Milton Blvd.","607",,,"WILLISTON",,,,,,,"2020-11-13 14:17:32.834170"
"90","Grand Bend","255901","78834","2222","17 Hague Road","610",,,"WILLISTON",,,,,,,"2020-11-13 14:17:32.855170"
"99","Grand Bend","255901","78834","2222","39 White Nobel St.","614",,,"WILLISTON",,,,,,,"2020-11-13 14:17:32.882463"
"99","Grand Bend","255901","78834","2222","369 Nobel Way","620",,,"WILLISTON",,,,,,,"2020-11-13 14:17:32.917573"
"99","Grand Bend","255901","78834","2222","990 Oak St.","623",,,"WILLISTON",,,,,,,"2020-11-13 14:17:32.935579"
"99","Grand Bend","255901","78834","2222","52 Nobel Street","624",,,"WILLISTON",,,,,,,"2020-11-13 14:17:32.958184"
"90","Grand Bend","255901","78834","2222","973 Oak Avenue","629",,,"WILLISTON",,,,,,,"2020-11-13 14:17:32.974199"
"99","Grand Bend","255901","78834","2222","494 Green Nobel Freeway","630",,,"WILLISTON",,,,,,,"2020-11-13 14:17:32.983596"
"90","Grand Bend","255901","78834","2222","93 South Green First Freeway","633",,,"WILLISTON",,,,,,,"2020-11-13 14:17:33.011085"
"90","Grand Bend","255901","78834","2222","937 Nobel St.","635",,,"WILLISTON",,,,,,,"2020-11-13 14:17:33.018670"
"90","Grand Bend","255901","78834","2222","36 White Nobel Street","637",,,"WILLISTON",,,,,,,"2020-11-13 14:17:33.048419"
"99","Grand Bend","255901","78834","2222","769 Milton St.","641",,,"WILLISTON",,,,,,,"2020-11-13 14:17:33.074544"
"99","Grand Bend","255901","78834","2222","91 Oak Parkway","647",,,"WILLISTON",,,,,,,"2020-11-13 14:17:33.099079"
"93","Grand Bend","255901","78834","2222","18 Second Freeway","444",,,"WILLISTON",,,,,,,"2020-11-13 14:17:31.766253"
"93","Grand Bend","255901","78834","2222","246 East Rocky First Road","446",,,"WILLISTON",,,,,,,"2020-11-13 14:17:31.794192"
"93","Grand Bend","255901","78834","2222","919 Rocky Second Avenue","452",,,"WILLISTON",,,,,,,"2020-11-13 14:17:31.818893"
"90","Grand Bend","255901","78834","2222","479 White Old Road","457",,,"WILLISTON",,,,,,,"2020-11-13 14:17:31.846988"
"93","Grand Bend","255901","78834","2222","94 White Clarendon Road","460",,,"WILLISTON",,,,,,,"2020-11-13 14:17:31.868653"
"93","Grand Bend","255901","78834","2222","32 Cowley Road","463",,,"WILLISTON",,,,,,,"2020-11-13 14:17:31.894999"
"90","Grand Bend","255901","78834","2222","662 East Oak St.","466",,,"WILLISTON",,,,,,,"2020-11-13 14:17:31.916044"
"93","Grand Bend","255901","78834","2222","40 Fabien St.","473",,,"WILLISTON",,,,,,,"2020-11-13 14:17:31.955435"
"93","Grand Bend","255901","78834","2222","31 West Second Parkway","478",,,"WILLISTON",,,,,,,"2020-11-13 14:17:31.995275"
"90","Grand Bend","255901","78834","2222","69 Hague Blvd.","481",,,"WILLISTON",,,,,,,"2020-11-13 14:17:32.005515"
"93","Grand Bend","255901","78834","2222","34 New St.","483",,,"WILLISTON",,,,,,,"2020-11-13 14:17:32.026612"
"90","Grand Bend","255901","78834","2222","366 East Rocky Hague Avenue","489",,,"WILLISTON",,,,,,,"2020-11-13 14:17:32.054802"
"93","Grand Bend","255901","78834","2222","22 West Green Oak Avenue","491",,,"WILLISTON",,,,,,,"2020-11-13 14:17:32.075365"
"93","Grand Bend","255901","78834","2222","14 North Green Nobel Street","495",,,"WILLISTON",,,,,,,"2020-11-13 14:17:32.099248"
"93","Grand Bend","255901","78834","2222","455 Rocky Milton Road","500",,,"WILLISTON",,,,,,,"2020-11-13 14:17:32.125463"
"93","Grand Bend","255901","78834","2222","448 Green Second Parkway","507",,,"WILLISTON",,,,,,,"2020-11-13 14:17:32.175812"
"90","Grand Bend","255901","78834","2222","29 Fabien Avenue","510",,,"WILLISTON",,,,,,,"2020-11-13 14:17:32.199649"
"90","Grand Bend","255901","78834","2222","51 Green Clarendon Boulevard","515",,,"WILLISTON",,,,,,,"2020-11-13 14:17:32.224912"
"93","Grand Bend","255901","78834","2222","96 Nobel Avenue","517",,,"WILLISTON",,,,,,,"2020-11-13 14:17:32.239616"
"90","Grand Bend","255901","78834","2222","54 White Hague Road","519",,,"WILLISTON",,,,,,,"2020-11-13 14:17:32.248575"
"93","Grand Bend","255901","78834","2222","657 New Road","524",,,"WILLISTON",,,,,,,"2020-11-13 14:17:32.274528"
"93","Grand Bend","255901","78834","2222","289 Nobel Drive","528",,,"WILLISTON",,,,,,,"2020-11-13 14:17:32.297371"
"93","Grand Bend","255901","78834","2222","35 Old Way","533",,,"WILLISTON",,,,,,,"2020-11-13 14:17:32.321240"
"90","Grand Bend","255901","78834","2222","63 White Milton St.","535",,,"WILLISTON",,,,,,,"2020-11-13 14:17:32.342939"
"93","Grand Bend","255901","78834","2222","920 Old Drive","539",,,"WILLISTON",,,,,,,"2020-11-13 14:17:32.367056"
"90","Grand Bend","255901","78834","2222","52 Nobel Parkway","542",,,"WILLISTON",,,,,,,"2020-11-13 14:17:32.392468"
"93","Grand Bend","255901","78834","2222","937 Rocky Cowley Street","546",,,"WILLISTON",,,,,,,"2020-11-13 14:17:32.421632"
"90","Grand Bend","255901","78834","2222","366 East Green Cowley Drive","549",,,"WILLISTON",,,,,,,"2020-11-13 14:17:32.444320"
"99","Grand Bend","255901","78834","2222","79 Second Parkway","555",,,"WILLISTON",,,,,,,"2020-11-13 14:17:32.469562"
"90","Grand Bend","255901","78834","2222","88 Second Street","558",,,"WILLISTON",,,,,,,"2020-11-13 14:17:32.498635"
"91","Grand Bend","255901","78834","2222","148 North Second Drive","561",,,"WILLISTON",,,,,,,"2020-11-13 14:17:32.520834"
"99","Grand Bend","255901","78834","2222","12 White Clarendon Avenue","564",,,"WILLISTON",,,,,,,"2020-11-13 14:17:32.546582"
"90","Grand Bend","255901","78834","2222","999 Cowley Avenue","570",,,"WILLISTON",,,,,,,"2020-11-13 14:17:32.572935"
"99","Grand Bend","255901","78834","2222","674 White Cowley Blvd.","573",,,"WILLISTON",,,,,,,"2020-11-13 14:17:32.599522"
"90","Grand Bend","255901","78834","2222","135 Cowley Way","576",,,"WILLISTON",,,,,,,"2020-11-13 14:17:32.625283"
"99","Grand Bend","255901","78834","2222","10 Green New St.","580",,,"WILLISTON",,,,,,,"2020-11-13 14:17:32.653987"
"93","Grand Bend","255901","78834","2222","331 White Milton Drive","583",,,"WILLISTON",,,,,,,"2020-11-13 14:17:32.678421"
"99","Grand Bend","255901","78834","2222","60 Hague Avenue","588",,,"WILLISTON",,,,,,,"2020-11-13 14:17:32.702950"
"99","Grand Bend","255901","78834","2222","24 Green Old Blvd.","592",,,"WILLISTON",,,,,,,"2020-11-13 14:17:32.730398"
"90","Grand Bend","255901","78834","2222","76 Rocky Cowley St.","596",,,"WILLISTON",,,,,,,"2020-11-13 14:17:32.757975"
"90","Grand Bend","255901","78834","2222","368 New Avenue","600",,,"WILLISTON",,,,,,,"2020-11-13 14:17:32.783972"
"90","Grand Bend","255901","78834","2222","489 Cowley Blvd.","601",,,"WILLISTON",,,,,,,"2020-11-13 14:17:32.800033"
"90","Grand Bend","255901","78834","2222","80 Fabien Blvd.","605",,,"WILLISTON",,,,,,,"2020-11-13 14:17:32.810120"
"99","Grand Bend","255901","78834","2222","12 Fabien Boulevard","604",,,"WILLISTON",,,,,,,"2020-11-13 14:17:32.826127"
"99","Grand Bend","255901","78834","2222","940 First Drive","611",,,"WILLISTON",,,,,,,"2020-11-13 14:17:32.858255"
"99","Grand Bend","255901","78834","2222","25 Green Nobel St.","613",,,"WILLISTON",,,,,,,"2020-11-13 14:17:32.881551"
"99","Grand Bend","255901","78834","2222","97 Green New Street","617",,,"WILLISTON",,,,,,,"2020-11-13 14:17:32.908488"
"99","Grand Bend","255901","78834","2222","27 South Old Drive","622",,,"WILLISTON",,,,,,,"2020-11-13 14:17:32.935672"
"99","Grand Bend","255901","78834","2222","12 West White Old St.","627",,,"WILLISTON",,,,,,,"2020-11-13 14:17:32.961849"
"99","Grand Bend","255901","78834","2222","18 New Boulevard","631",,,"WILLISTON",,,,,,,"2020-11-13 14:17:32.987317"
"99","Grand Bend","255901","78834","2222","945 Oak Street","638",,,"WILLISTON",,,,,,,"2020-11-13 14:17:33.026123"
"99","Grand Bend","255901","78834","2222","70 Oak Blvd.","640",,,"WILLISTON",,,,,,,"2020-11-13 14:17:33.051328"
"90","Grand Bend","255901","78834","2222","51 Clarendon Blvd.","652",,,"WILLISTON",,,,,,,"2020-11-13 14:17:33.078797"
"99","Grand Bend","255901","78834","2222","71 South Green Second Boulevard","644",,,"WILLISTON",,,,,,,"2020-11-13 14:17:33.091857"
"99","Grand Bend","255901","78834","2222","609 White First Boulevard","646",,,"WILLISTON",,,,,,,"2020-11-13 14:17:33.105099"
"99","Grand Bend","255901","78834","2222","917 Fabien Road","651",,,"WILLISTON",,,,,,,"2020-11-13 14:17:33.125777"
"99","Grand Bend","255901","78834","2222","667 White New Freeway","654",,,"WILLISTON",,,,,,,"2020-11-13 14:17:33.148773"
"90","Grand Bend","255901","78834","2222","686 East White New Road","659",,,"WILLISTON",,,,,,,"2020-11-13 14:17:33.173552"
"99","Grand Bend","255901","78834","2222","552 North White Cowley Way","663",,,"WILLISTON",,,,,,,"2020-11-13 14:17:33.196880"
"99","Grand Bend","255901","78834","2222","151 Oak Boulevard","665",,,"WILLISTON",,,,,,,"2020-11-13 14:17:33.221673"
"99","Grand Bend","255901","78834","2222","71 Oak Blvd.","669",,,"WILLISTON",,,,,,,"2020-11-13 14:17:33.245012"
"90","Grand Bend","255901","78834","2222","38 Rocky Milton Way","674",,,"WILLISTON",,,,,,,"2020-11-13 14:17:33.272125"
"90","Grand Bend","255901","78834","2222","884 West Milton Way","679",,,"WILLISTON",,,,,,,"2020-11-13 14:17:33.297395"
"99","Grand Bend","255901","78834","2222","936 West Hague Drive","683",,,"WILLISTON",,,,,,,"2020-11-13 14:17:33.321018"
"85","Grand Bend","255901","78834","2222","277 Cowley Boulevard","687",,,"WILLISTON",,,,,,,"2020-11-13 14:17:33.345850"
"85","Grand Bend","255901","78834","2222","80 Cowley Drive","689",,,"WILLISTON",,,,,,,"2020-11-13 14:17:33.369207"
"85","Grand Bend","255901","78834","2222","857 Old Avenue","693",,,"WILLISTON",,,,,,,"2020-11-13 14:17:33.394608"
"85","Grand Bend","255901","78834","2222","61 Rocky Milton Avenue","698",,,"WILLISTON",,,,,,,"2020-11-13 14:17:33.419770"
"85","Grand Bend","255901","78834","2222","146 West New St.","702",,,"WILLISTON",,,,,,,"2020-11-13 14:17:33.444963"
"85","Grand Bend","255901","78834","2222","584 Second Road","707",,,"WILLISTON",,,,,,,"2020-11-13 14:17:33.471886"
"99","Grand Bend","255901","78834","2222","863 Green Cowley Blvd.","710",,,"WILLISTON",,,,,,,"2020-11-13 14:17:33.497078"
"90","Grand Bend","255901","78834","2222","93 West Green Second Road","506",,,"WILLISTON",,,,,,,"2020-11-13 14:17:32.175767"
"93","Grand Bend","255901","78834","2222","50 First St.","509",,,"WILLISTON",,,,,,,"2020-11-13 14:17:32.186657"
"93","Grand Bend","255901","78834","2222","993 Green Hague Way","511",,,"WILLISTON",,,,,,,"2020-11-13 14:17:32.199662"
"93","Grand Bend","255901","78834","2222","53 Green Nobel Road","514",,,"WILLISTON",,,,,,,"2020-11-13 14:17:32.213414"
"93","Grand Bend","255901","78834","2222","675 White First Drive","516",,,"WILLISTON",,,,,,,"2020-11-13 14:17:32.225759"
"90","Grand Bend","255901","78834","2222","84 Rocky First Way","518",,,"WILLISTON",,,,,,,"2020-11-13 14:17:32.248537"
"93","Grand Bend","255901","78834","2222","107 Milton Avenue","523",,,"WILLISTON",,,,,,,"2020-11-13 14:17:32.274499"
"93","Grand Bend","255901","78834","2222","30 North White Cowley Road","525",,,"WILLISTON",,,,,,,"2020-11-13 14:17:32.292152"
"93","Grand Bend","255901","78834","2222","23 White Nobel Blvd.","530",,,"WILLISTON",,,,,,,"2020-11-13 14:17:32.317781"
"90","Grand Bend","255901","78834","2222","88 First Way","532",,,"WILLISTON",,,,,,,"2020-11-13 14:17:32.341217"
"93","Grand Bend","255901","78834","2222","297 Cowley Drive","536",,,"WILLISTON",,,,,,,"2020-11-13 14:17:32.367069"
"93","Grand Bend","255901","78834","2222","31 North Fabien Boulevard","541",,,"WILLISTON",,,,,,,"2020-11-13 14:17:32.392516"
"99","Grand Bend","255901","78834","2222","37 White Milton Road","545",,,"WILLISTON",,,,,,,"2020-11-13 14:17:32.419675"
"99","Grand Bend","255901","78834","2222","50 Oak Avenue","550",,,"WILLISTON",,,,,,,"2020-11-13 14:17:32.444856"
"99","Grand Bend","255901","78834","2222","418 South Nobel Blvd.","553",,,"WILLISTON",,,,,,,"2020-11-13 14:17:32.465792"
"90","Grand Bend","255901","78834","2222","123 Simons Way","552",,,"WILLISTON",,,,,,,"2020-11-13 14:17:32.507815"
"90","Grand Bend","255901","78834","2222","78 Cowley St.","559",,,"WILLISTON",,,,,,,"2020-11-13 14:17:32.519350"
"90","Grand Bend","255901","78834","2222","923 West Clarendon Road","565",,,"WILLISTON",,,,,,,"2020-11-13 14:17:32.548374"
"93","Grand Bend","255901","78834","2222","843 White Nobel Drive","567",,,"WILLISTON",,,,,,,"2020-11-13 14:17:32.573002"
"99","Grand Bend","255901","78834","2222","38 North Green Nobel Drive","572",,,"WILLISTON",,,,,,,"2020-11-13 14:17:32.601197"
"90","Grand Bend","255901","78834","2222","51 Milton Drive","574",,,"WILLISTON",,,,,,,"2020-11-13 14:17:32.623602"
"99","Grand Bend","255901","78834","2222","81 South Green Old Blvd.","581",,,"WILLISTON",,,,,,,"2020-11-13 14:17:32.658904"
"99","Grand Bend","255901","78834","2222","633 West Second Blvd.","584",,,"WILLISTON",,,,,,,"2020-11-13 14:17:32.681337"
"99","Grand Bend","255901","78834","2222","52 West Green Hague Freeway","587",,,"WILLISTON",,,,,,,"2020-11-13 14:17:32.702667"
"90","Grand Bend","255901","78834","2222","66 Rocky Old Blvd.","589",,,"WILLISTON",,,,,,,"2020-11-13 14:17:32.714558"
"99","Grand Bend","255901","78834","2222","65 South Green Hague St.","590",,,"WILLISTON",,,,,,,"2020-11-13 14:17:32.726412"
"93","Grand Bend","255901","78834","2222","85 West Green Fabien Drive","593",,,"WILLISTON",,,,,,,"2020-11-13 14:17:32.743450"
"90","Grand Bend","255901","78834","2222","707 Green First Street","594",,,"WILLISTON",,,,,,,"2020-11-13 14:17:32.752043"
"99","Grand Bend","255901","78834","2222","39 Oak Street","598",,,"WILLISTON",,,,,,,"2020-11-13 14:17:32.779894"
"99","Grand Bend","255901","78834","2222","59 Fabien Blvd.","603",,,"WILLISTON",,,,,,,"2020-11-13 14:17:32.808479"
"99","Grand Bend","255901","78834","2222","40 North New Parkway","606",,,"WILLISTON",,,,,,,"2020-11-13 14:17:32.829384"
"90","Grand Bend","255901","78834","2222","571 Oak Freeway","609",,,"WILLISTON",,,,,,,"2020-11-13 14:17:32.856052"
"90","Grand Bend","255901","78834","2222","579 Old Avenue","615",,,"WILLISTON",,,,,,,"2020-11-13 14:17:32.882361"
"99","Grand Bend","255901","78834","2222","488 Milton Avenue","619",,,"WILLISTON",,,,,,,"2020-11-13 14:17:32.909227"
"99","Grand Bend","255901","78834","2222","344 Green Nobel St.","621",,,"WILLISTON",,,,,,,"2020-11-13 14:17:32.932412"
"90","Grand Bend","255901","78834","2222","836 North Green Clarendon Freeway","625",,,"WILLISTON",,,,,,,"2020-11-13 14:17:32.946617"
"99","Grand Bend","255901","78834","2222","563 Nobel Road","626",,,"WILLISTON",,,,,,,"2020-11-13 14:17:32.959241"
"93","Grand Bend","255901","78834","2222","705 Hague St.","628",,,"WILLISTON",,,,,,,"2020-11-13 14:17:32.982325"
"99","Grand Bend","255901","78834","2222","924 South White Cowley Parkway","632",,,"WILLISTON",,,,,,,"2020-11-13 14:17:33.000296"
"90","Grand Bend","255901","78834","2222","78 North White Nobel Drive","634",,,"WILLISTON",,,,,,,"2020-11-13 14:17:33.012417"
"99","Grand Bend","255901","78834","2222","46 Green Fabien Street","636",,,"WILLISTON",,,,,,,"2020-11-13 14:17:33.036652"
"99","Grand Bend","255901","78834","2222","148 Old Road","639",,,"WILLISTON",,,,,,,"2020-11-13 14:17:33.048383"
"99","Grand Bend","255901","78834","2222","346 Hague Freeway","642",,,"WILLISTON",,,,,,,"2020-11-13 14:17:33.066393"
"99","Grand Bend","255901","78834","2222","64 Old Avenue","643",,,"WILLISTON",,,,,,,"2020-11-13 14:17:33.074295"
"99","Grand Bend","255901","78834","2222","371 Nobel Blvd.","645",,,"WILLISTON",,,,,,,"2020-11-13 14:17:33.098876"
"99","Grand Bend","255901","78834","2222","57 Second Drive","648",,,"WILLISTON",,,,,,,"2020-11-13 14:17:33.120206"
"90","Grand Bend","255901","78834","2222","315 Nobel Way","650",,,"WILLISTON",,,,,,,"2020-11-13 14:17:33.132869"
"99","Grand Bend","255901","78834","2222","247 Clarendon Road","655",,,"WILLISTON",,,,,,,"2020-11-13 14:17:33.146424"
"90","Grand Bend","255901","78834","2222","473 Green Hague Way","656",,,"WILLISTON",,,,,,,"2020-11-13 14:17:33.162674"
"90","Grand Bend","255901","78834","2222","250 First Boulevard","658",,,"WILLISTON",,,,,,,"2020-11-13 14:17:33.170907"
"99","Grand Bend","255901","78834","2222","950 Green Cowley Avenue","660",,,"WILLISTON",,,,,,,"2020-11-13 14:17:33.188203"
"99","Grand Bend","255901","78834","2222","45 Green Second Blvd.","662",,,"WILLISTON",,,,,,,"2020-11-13 14:17:33.195499"
"99","Grand Bend","255901","78834","2222","629 White Second Road","667",,,"WILLISTON",,,,,,,"2020-11-13 14:17:33.222817"
"99","Grand Bend","255901","78834","2222","27 Green Old Street","668",,,"WILLISTON",,,,,,,"2020-11-13 14:17:33.240697"
"90","Grand Bend","255901","78834","2222","141 Green Clarendon Freeway","672",,,"WILLISTON",,,,,,,"2020-11-13 14:17:33.266744"
"99","Grand Bend","255901","78834","2222","433 Rocky Nobel Blvd.","678",,,"WILLISTON",,,,,,,"2020-11-13 14:17:33.297477"
"85","Grand Bend","255901","78834","2222","410 White Old St.","680",,,"WILLISTON",,,,,,,"2020-11-13 14:17:33.321120"
"85","Grand Bend","255901","78834","2222","40 East Second Freeway","684",,,"WILLISTON",,,,,,,"2020-11-13 14:17:33.341203"
"85","Grand Bend","255901","78834","2222","41 Green Fabien Road","690",,,"WILLISTON",,,,,,,"2020-11-13 14:17:33.369956"
"85","Grand Bend","255901","78834","2222","646 White Cowley Freeway","692",,,"WILLISTON",,,,,,,"2020-11-13 14:17:33.392414"
"85","Grand Bend","255901","78834","2222","437 White Nobel Boulevard","696",,,"WILLISTON",,,,,,,"2020-11-13 14:17:33.416719"
"99","Grand Bend","255901","78834","2222","86 Milton Boulevard","700",,,"WILLISTON",,,,,,,"2020-11-13 14:17:33.441395"
"85","Grand Bend","255901","78834","2222","188 Rocky Nobel Boulevard","704",,,"WILLISTON",,,,,,,"2020-11-13 14:17:33.467259"
"85","Grand Bend","255901","78834","2222","10 Rocky Second Way","708",,,"WILLISTON",,,,,,,"2020-11-13 14:17:33.494492"
"85","Grand Bend","255901","78834","2222","682 Rocky Oak Freeway","712",,,"WILLISTON",,,,,,,"2020-11-13 14:17:33.519674"
"85","Grand Bend","255901","78834","2222","272 Clarendon Boulevard","718",,,"WILLISTON",,,,,,,"2020-11-13 14:17:33.547289"
"99","Grand Bend","255901","78834","2222","50 Nobel Parkway","721",,,"WILLISTON",,,,,,,"2020-11-13 14:17:33.571344"
"85","Grand Bend","255901","78834","2222","362 Green New Freeway","724",,,"WILLISTON",,,,,,,"2020-11-13 14:17:33.596717"
"85","Grand Bend","255901","78834","2222","45 Rocky Hague Blvd.","727",,,"WILLISTON",,,,,,,"2020-11-13 14:17:33.604312"
"85","Grand Bend","255901","78834","2222","806 West Green Clarendon Road","728",,,"WILLISTON",,,,,,,"2020-11-13 14:17:33.622452"
"93","Grand Bend","255901","78834","2222","39 New Avenue","649",,,"WILLISTON",,,,,,,"2020-11-13 14:17:33.123304"
"90","Grand Bend","255901","78834","2222","776 Green Milton Street","653",,,"WILLISTON",,,,,,,"2020-11-13 14:17:33.145909"
"90","Grand Bend","255901","78834","2222","439 Rocky Milton Way","657",,,"WILLISTON",,,,,,,"2020-11-13 14:17:33.172004"
"99","Grand Bend","255901","78834","2222","51 Green Hague St.","661",,,"WILLISTON",,,,,,,"2020-11-13 14:17:33.196623"
"99","Grand Bend","255901","78834","2222","71 Nobel Freeway","666",,,"WILLISTON",,,,,,,"2020-11-13 14:17:33.222819"
"99","Grand Bend","255901","78834","2222","156 Second Drive","670",,,"WILLISTON",,,,,,,"2020-11-13 14:17:33.245593"
"99","Grand Bend","255901","78834","2222","69 New Avenue","673",,,"WILLISTON",,,,,,,"2020-11-13 14:17:33.272013"
"90","Grand Bend","255901","78834","2222","601 Milton Parkway","677",,,"WILLISTON",,,,,,,"2020-11-13 14:17:33.295153"
"99","Grand Bend","255901","78834","2222","532 South White Nobel Boulevard","681",,,"WILLISTON",,,,,,,"2020-11-13 14:17:33.315903"
"85","Grand Bend","255901","78834","2222","19 White Old Parkway","682",,,"WILLISTON",,,,,,,"2020-11-13 14:17:33.324804"
"85","Grand Bend","255901","78834","2222","561 West Second St.","685",,,"WILLISTON",,,,,,,"2020-11-13 14:17:33.343728"
"99","Grand Bend","255901","78834","2222","11 New Freeway","688",,,"WILLISTON",,,,,,,"2020-11-13 14:17:33.369762"
"85","Grand Bend","255901","78834","2222","836 Clarendon Street","694",,,"WILLISTON",,,,,,,"2020-11-13 14:17:33.394649"
"99","Grand Bend","255901","78834","2222","239 West Rocky Oak Parkway","697",,,"WILLISTON",,,,,,,"2020-11-13 14:17:33.416126"
"85","Grand Bend","255901","78834","2222","426 Second Street","703",,,"WILLISTON",,,,,,,"2020-11-13 14:17:33.445536"
"85","Grand Bend","255901","78834","2222","883 West Green Old Avenue","705",,,"WILLISTON",,,,,,,"2020-11-13 14:17:33.468807"
"85","Grand Bend","255901","78834","2222","855 East Oak Parkway","709",,,"WILLISTON",,,,,,,"2020-11-13 14:17:33.494487"
"85","Grand Bend","255901","78834","2222","58 Second Street","713",,,"WILLISTON",,,,,,,"2020-11-13 14:17:33.519808"
"85","Grand Bend","255901","78834","2222","656 Oak St.","719",,,"WILLISTON",,,,,,,"2020-11-13 14:17:33.546919"
"85","Grand Bend","255901","78834","2222","399 Green Hague Boulevard","722",,,"WILLISTON",,,,,,,"2020-11-13 14:17:33.571663"
"85","Grand Bend","255901","78834","2222","332 White Milton Freeway","725",,,"WILLISTON",,,,,,,"2020-11-13 14:17:33.598499"
"85","Grand Bend","255901","78834","2222","19 South Milton Drive","729",,,"WILLISTON",,,,,,,"2020-11-13 14:17:33.623468"
"85","Grand Bend","255901","78834","2222","939 White New Parkway","732",,,"WILLISTON",,,,,,,"2020-11-13 14:17:33.647307"
"85","Grand Bend","255901","78834","2222","685 West Cowley Avenue","737",,,"WILLISTON",,,,,,,"2020-11-13 14:17:33.671875"
"85","Grand Bend","255901","78834","2222","940 East Rocky New Boulevard","739",,,"WILLISTON",,,,,,,"2020-11-13 14:17:33.698473"
"85","Grand Bend","255901","78834","2222","242 West Hague Way","745",,,"WILLISTON",,,,,,,"2020-11-13 14:17:33.723270"
"85","Grand Bend","255901","78834","2222","51 Cowley Blvd.","754",,,"WILLISTON",,,,,,,"2020-11-13 14:17:33.773684"
"85","Grand Bend","255901","78834","2222","77 Old Drive","756",,,"WILLISTON",,,,,,,"2020-11-13 14:17:33.798530"
"85","Grand Bend","255901","78834","2222","644 Fabien Boulevard","759",,,"WILLISTON",,,,,,,"2020-11-13 14:17:33.826116"
"85","Grand Bend","255901","78834","2222","41 Green Oak Road","765",,,"WILLISTON",,,,,,,"2020-11-13 14:17:33.860881"
"85","Grand Bend","255901","78834","2222","86 White Nobel Avenue","769",,,"WILLISTON",,,,,,,"2020-11-13 14:17:33.888256"
"85","Grand Bend","255901","78834","2222","30 Oak Blvd.","779",,,"WILLISTON",,,,,,,"2020-11-13 14:17:33.958792"
"85","Grand Bend","255901","78834","2222","22 Green Fabien Way","781",,,"WILLISTON",,,,,,,"2020-11-13 14:17:33.969416"
"85","Grand Bend","255901","78834","2222","27 East First St.","782",,,"WILLISTON",,,,,,,"2020-11-13 14:17:33.977553"
"85","Grand Bend","255901","78834","2222","70 New Road","788",,,"WILLISTON",,,,,,,"2020-11-13 14:17:34.012443"
"85","Grand Bend","255901","78834","2222","324 Green Oak Way","789",,,"WILLISTON",,,,,,,"2020-11-13 14:17:34.024989"
"85","Grand Bend","255901","78834","2222","520 East White Milton St.","790",,,"WILLISTON",,,,,,,"2020-11-13 14:17:34.035470"
"85","Grand Bend","255901","78834","2222","50 Rocky Fabien Way","796",,,"WILLISTON",,,,,,,"2020-11-13 14:17:34.062473"
"85","Grand Bend","255901","78834","2222","37 Milton Avenue","803",,,"WILLISTON",,,,,,,"2020-11-13 14:17:34.110622"
"85","Grand Bend","255901","78834","2222","97 Rocky Second Way","807",,,"WILLISTON",,,,,,,"2020-11-13 14:17:34.135117"
"85","Grand Bend","255901","78834","2222","313 Clarendon Freeway","810",,,"WILLISTON",,,,,,,"2020-11-13 14:17:34.159083"
"85","Grand Bend","255901","78834","2222","898 East White Cowley Boulevard","814",,,"WILLISTON",,,,,,,"2020-11-13 14:17:34.187279"
"85","Grand Bend","255901","78834","2222","921 Second St.","818",,,"WILLISTON",,,,,,,"2020-11-13 14:17:34.211790"
"97","Grand Bend","255901","78834","2222","437 Hague Way","826",,,"WILLISTON",,,,,,,"2020-11-13 14:17:34.268983"
"97","Grand Bend","255901","78834","2222","903 Clarendon Road","828",,,"WILLISTON",,,,,,,"2020-11-13 14:17:34.287768"
"85","Grand Bend","255901","78834","2222","279 Green Second St.","834",,,"WILLISTON",,,,,,,"2020-11-13 14:17:34.314197"
"97","Grand Bend","255901","78834","2222","605 Rocky First Freeway","835",,,"WILLISTON",,,,,,,"2020-11-13 14:17:34.320862"
"97","Grand Bend","255901","78834","2222","89 Green Clarendon Street","836",,,"WILLISTON",,,,,,,"2020-11-13 14:17:34.339187"
"97","Grand Bend","255901","78834","2222","14 South White Cowley Freeway","841",,,"WILLISTON",,,,,,,"2020-11-13 14:17:34.363262"
"97","Grand Bend","255901","78834","2222","61 Cowley Blvd.","843",,,"WILLISTON",,,,,,,"2020-11-13 14:17:34.372740"
"97","Grand Bend","255901","78834","2222","50 Rocky Second Avenue","844",,,"WILLISTON",,,,,,,"2020-11-13 14:17:34.389065"
"97","Grand Bend","255901","78834","2222","856 Oak Parkway","846",,,"WILLISTON",,,,,,,"2020-11-13 14:17:34.399154"
"85","Grand Bend","255901","78834","2222","662 White Fabien Street","848",,,"WILLISTON",,,,,,,"2020-11-13 14:17:34.413256"
"97","Grand Bend","255901","78834","2222","52 Fabien Way","849",,,"WILLISTON",,,,,,,"2020-11-13 14:17:34.426209"
"97","Grand Bend","255901","78834","2222","58 North Nobel Parkway","853",,,"WILLISTON",,,,,,,"2020-11-13 14:17:34.442314"
"97","Grand Bend","255901","78834","2222","224 First Drive","854",,,"WILLISTON",,,,,,,"2020-11-13 14:17:34.452740"
"97","Grand Bend","255901","78834","2222","79 North Nobel Road","856",,,"WILLISTON",,,,,,,"2020-11-13 14:17:34.463016"
"97","Grand Bend","255901","78834","2222","105 West Cowley Drive","858",,,"WILLISTON",,,,,,,"2020-11-13 14:17:34.470390"
"97","Grand Bend","255901","78834","2222","63 New Drive","862",,,"WILLISTON",,,,,,,"2020-11-13 14:17:34.500778"
"97","Grand Bend","255901","78834","2222","81 Second Drive","865",,,"WILLISTON",,,,,,,"2020-11-13 14:17:34.524540"
"97","Grand Bend","255901","78834","2222","863 Milton Avenue","867",,,"WILLISTON",,,,,,,"2020-11-13 14:17:34.535133"
"97","Grand Bend","255901","78834","2222","32 Nobel Avenue","870",,,"WILLISTON",,,,,,,"2020-11-13 14:17:34.549720"
"97","Grand Bend","255901","78834","2222","619 South Rocky Old Blvd.","874",,,"WILLISTON",,,,,,,"2020-11-13 14:17:34.573955"
"97","Grand Bend","255901","78834","2222","97 North Second Drive","875",,,"WILLISTON",,,,,,,"2020-11-13 14:17:34.590568"
"97","Grand Bend","255901","78834","2222","414 Oak Avenue","877",,,"WILLISTON",,,,,,,"2020-11-13 14:17:34.599237"
"97","Grand Bend","255901","78834","2222","964 Fabien Street","880",,,"WILLISTON",,,,,,,"2020-11-13 14:17:34.620694"
"97","Grand Bend","255901","78834","2222","437 Hague Street","883",,,"WILLISTON",,,,,,,"2020-11-13 14:17:34.643786"
"97","Grand Bend","255901","78834","2222","46 White New Blvd.","887",,,"WILLISTON",,,,,,,"2020-11-13 14:17:34.658886"
"97","Grand Bend","255901","78834","2222","62 Rocky Old Road","888",,,"WILLISTON",,,,,,,"2020-11-13 14:17:34.669275"
"97","Grand Bend","255901","78834","2222","77 Second Drive","890",,,"WILLISTON",,,,,,,"2020-11-13 14:17:34.685611"
"85","Grand Bend","255901","78834","2222","628 Old Avenue","714",,,"WILLISTON",,,,,,,"2020-11-13 14:17:33.520919"
"85","Grand Bend","255901","78834","2222","624 Old St.","717",,,"WILLISTON",,,,,,,"2020-11-13 14:17:33.547184"
"91","Grand Bend","255901","78834","2222","677 Cowley St.","720",,,"WILLISTON",,,,,,,"2020-11-13 14:17:33.571669"
"85","Grand Bend","255901","78834","2222","78 First Avenue","726",,,"WILLISTON",,,,,,,"2020-11-13 14:17:33.598490"
"85","Grand Bend","255901","78834","2222","96 North Green Nobel Street","730",,,"WILLISTON",,,,,,,"2020-11-13 14:17:33.622476"
"85","Grand Bend","255901","78834","2222","737 Clarendon Avenue","731",,,"WILLISTON",,,,,,,"2020-11-13 14:17:33.629563"
"85","Grand Bend","255901","78834","2222","97 Green Milton Drive","740",,,"WILLISTON",,,,,,,"2020-11-13 14:17:33.673932"
"85","Grand Bend","255901","78834","2222","237 White First Way","742",,,"WILLISTON",,,,,,,"2020-11-13 14:17:33.701401"
"85","Grand Bend","255901","78834","2222","769 North Rocky Hague Drive","743",,,"WILLISTON",,,,,,,"2020-11-13 14:17:33.719349"
"85","Grand Bend","255901","78834","2222","64 Green Hague Way","746",,,"WILLISTON",,,,,,,"2020-11-13 14:17:33.727743"
"85","Grand Bend","255901","78834","2222","41 Second Boulevard","748",,,"WILLISTON",,,,,,,"2020-11-13 14:17:33.748871"
"85","Grand Bend","255901","78834","2222","81 White Fabien Parkway","752",,,"WILLISTON",,,,,,,"2020-11-13 14:17:33.772234"
"85","Grand Bend","255901","78834","2222","296 White New Parkway","753",,,"WILLISTON",,,,,,,"2020-11-13 14:17:33.797804"
"85","Grand Bend","255901","78834","2222","340 Green Milton Freeway","760",,,"WILLISTON",,,,,,,"2020-11-13 14:17:33.821671"
"85","Grand Bend","255901","78834","2222","492 Hague Avenue","761",,,"WILLISTON",,,,,,,"2020-11-13 14:17:33.829987"
"85","Grand Bend","255901","78834","2222","40 White Nobel Avenue","764",,,"WILLISTON",,,,,,,"2020-11-13 14:17:33.852749"
"85","Grand Bend","255901","78834","2222","580 Green Oak Parkway","766",,,"WILLISTON",,,,,,,"2020-11-13 14:17:33.864878"
"85","Grand Bend","255901","78834","2222","23 West Second Way","768",,,"WILLISTON",,,,,,,"2020-11-13 14:17:33.879773"
"85","Grand Bend","255901","78834","2222","96 First Boulevard","773",,,"WILLISTON",,,,,,,"2020-11-13 14:17:33.910172"
"85","Grand Bend","255901","78834","2222","790 South Green Cowley Way","776",,,"WILLISTON",,,,,,,"2020-11-13 14:17:33.934771"
"85","Grand Bend","255901","78834","2222","55 East Old Avenue","778",,,"WILLISTON",,,,,,,"2020-11-13 14:17:33.948149"
"85","Grand Bend","255901","78834","2222","433 New Boulevard","784",,,"WILLISTON",,,,,,,"2020-11-13 14:17:33.983742"
"85","Grand Bend","255901","78834","2222","11 Rocky Old Parkway","787",,,"WILLISTON",,,,,,,"2020-11-13 14:17:34.012304"
"85","Grand Bend","255901","78834","2222","457 Green Second Road","792",,,"WILLISTON",,,,,,,"2020-11-13 14:17:34.040469"
"85","Grand Bend","255901","78834","2222","11 Fabien Boulevard","793",,,"WILLISTON",,,,,,,"2020-11-13 14:17:34.054313"
"85","Grand Bend","255901","78834","2222","98 Green First Parkway","795",,,"WILLISTON",,,,,,,"2020-11-13 14:17:34.065571"
"85","Grand Bend","255901","78834","2222","22 Second Boulevard","799",,,"WILLISTON",,,,,,,"2020-11-13 14:17:34.083248"
"85","Grand Bend","255901","78834","2222","51 Rocky Hague Way","811",,,"WILLISTON",,,,,,,"2020-11-13 14:17:34.162700"
"97","Grand Bend","255901","78834","2222","61 Rocky Cowley Boulevard","816",,,"WILLISTON",,,,,,,"2020-11-13 14:17:34.205913"
"97","Grand Bend","255901","78834","2222","887 Second Boulevard","819",,,"WILLISTON",,,,,,,"2020-11-13 14:17:34.216055"
"97","Grand Bend","255901","78834","2222","290 East Nobel Drive","822",,,"WILLISTON",,,,,,,"2020-11-13 14:17:34.236940"
"97","Grand Bend","255901","78834","2222","587 East Clarendon Avenue","824",,,"WILLISTON",,,,,,,"2020-11-13 14:17:34.261493"
"97","Grand Bend","255901","78834","2222","732 Rocky New St.","830",,,"WILLISTON",,,,,,,"2020-11-13 14:17:34.294898"
"97","Grand Bend","255901","78834","2222","409 Green Hague Way","845",,,"WILLISTON",,,,,,,"2020-11-13 14:17:34.389036"
"97","Grand Bend","255901","78834","2222","20 Clarendon Drive","851",,,"WILLISTON",,,,,,,"2020-11-13 14:17:34.415275"
"97","Grand Bend","255901","78834","2222","16 New Road","857",,,"WILLISTON",,,,,,,"2020-11-13 14:17:34.476911"
"97","Grand Bend","255901","78834","2222","155 Rocky Hague Road","864",,,"WILLISTON",,,,,,,"2020-11-13 14:17:34.518204"
"97","Grand Bend","255901","78834","2222","571 Rocky Hague St.","866",,,"WILLISTON",,,,,,,"2020-11-13 14:17:34.526611"
"97","Grand Bend","255901","78834","2222","15 Nobel Way","869",,,"WILLISTON",,,,,,,"2020-11-13 14:17:34.550345"
"97","Grand Bend","255901","78834","2222","538 Clarendon Road","873",,,"WILLISTON",,,,,,,"2020-11-13 14:17:34.578054"
"97","Grand Bend","255901","78834","2222","30 Clarendon Blvd.","878",,,"WILLISTON",,,,,,,"2020-11-13 14:17:34.603614"
"97","Grand Bend","255901","78834","2222","920 Rocky Hague St.","881",,,"WILLISTON",,,,,,,"2020-11-13 14:17:34.621733"
"97","Grand Bend","255901","78834","2222","654 Mission Hills","884",,,"WILLISTON",,,,,,,"2020-11-13 14:17:34.644354"
"97","Grand Bend","255901","78834","2222","86 White New Boulevard","889",,,"WILLISTON",,,,,,,"2020-11-13 14:17:34.669248"
"97","Grand Bend","255901","78834","2222","928 West Rocky Cowley Road","892",,,"WILLISTON",,,,,,,"2020-11-13 14:17:34.695627"
"97","Grand Bend","255901","78834","2222","858 New Boulevard","894",,,"WILLISTON",,,,,,,"2020-11-13 14:17:34.712398"
"97","Grand Bend","255901","78834","2222","169 South Cowley Way","900",,,"WILLISTON",,,,,,,"2020-11-13 14:17:34.745123"
"97","Grand Bend","255901","78834","2222","503 Milton St.","904",,,"WILLISTON",,,,,,,"2020-11-13 14:17:34.784571"
"97","Grand Bend","255901","78834","2222","189 Oak Street","908",,,"WILLISTON",,,,,,,"2020-11-13 14:17:34.809753"
"97","Grand Bend","255901","78834","2222","95 East Nobel St.","913",,,"WILLISTON",,,,,,,"2020-11-13 14:17:34.834469"
"97","Grand Bend","255901","78834","2222","643 Oak Street","916",,,"WILLISTON",,,,,,,"2020-11-13 14:17:34.861619"
"97","Grand Bend","255901","78834","2222","870 Old Boulevard","922",,,"WILLISTON",,,,,,,"2020-11-13 14:17:34.885624"
"97","Grand Bend","255901","78834","2222","70 Rocky Fabien St.","925",,,"WILLISTON",,,,,,,"2020-11-13 14:17:34.910256"
"97","Grand Bend","255901","78834","2222","99 Rocky First Boulevard","928",,,"WILLISTON",,,,,,,"2020-11-13 14:17:34.934887"
"97","Grand Bend","255901","78834","2222","84 Green Hague Avenue","931",,,"WILLISTON",,,,,,,"2020-11-13 14:17:34.961639"
"97","Grand Bend","255901","78834","2222","47 Green Fabien Avenue","937",,,"WILLISTON",,,,,,,"2020-11-13 14:17:34.986890"
"97","Grand Bend","255901","78834","2222","407 Cowley Boulevard","948",,,"WILLISTON",,,,,,,"2020-11-13 14:17:35.059097"
"97","Grand Bend","255901","78834","2222","864 Fabien Freeway","956",,,"WILLISTON",,,,,,,"2020-11-13 14:17:35.105971"
"97","Grand Bend","255901","78834","2222","53 Cowley Parkway","959",,,"WILLISTON",,,,,,,"2020-11-13 14:17:35.125180"
"85","Grand Bend","255901","78834","2222","820 East Milton Freeway","723",,,"WILLISTON",,,,,,,"2020-11-13 14:17:33.576490"
"85","Grand Bend","255901","78834","2222","70 Green Old St.","735",,,"WILLISTON",,,,,,,"2020-11-13 14:17:33.648388"
"85","Grand Bend","255901","78834","2222","290 West Rocky First Road","749",,,"WILLISTON",,,,,,,"2020-11-13 14:17:33.750184"
"85","Grand Bend","255901","78834","2222","24 West Green Nobel Way","772",,,"WILLISTON",,,,,,,"2020-11-13 14:17:33.909257"
"85","Grand Bend","255901","78834","2222","757 New Way","798",,,"WILLISTON",,,,,,,"2020-11-13 14:17:34.085446"
"85","Grand Bend","255901","78834","2222","20 Rocky First Blvd.","802",,,"WILLISTON",,,,,,,"2020-11-13 14:17:34.109031"
"85","Grand Bend","255901","78834","2222","40 Clarendon Freeway","806",,,"WILLISTON",,,,,,,"2020-11-13 14:17:34.135788"
"85","Grand Bend","255901","78834","2222","363 South White Nobel Way","815",,,"WILLISTON",,,,,,,"2020-11-13 14:17:34.192243"
"97","Grand Bend","255901","78834","2222","747 West Green Clarendon Drive","821",,,"WILLISTON",,,,,,,"2020-11-13 14:17:34.238985"
"97","Grand Bend","255901","78834","2222","587 Rocky Fabien Way","825",,,"WILLISTON",,,,,,,"2020-11-13 14:17:34.263836"
"97","Grand Bend","255901","78834","2222","546 West White Second Drive","829",,,"WILLISTON",,,,,,,"2020-11-13 14:17:34.289540"
"97","Grand Bend","255901","78834","2222","85 Green Clarendon Boulevard","839",,,"WILLISTON",,,,,,,"2020-11-13 14:17:34.345186"
"97","Grand Bend","255901","78834","2222","89 White Hague Way","895",,,"WILLISTON",,,,,,,"2020-11-13 14:17:34.720381"
"97","Grand Bend","255901","78834","2222","14 Green Cowley Parkway","910",,,"WILLISTON",,,,,,,"2020-11-13 14:17:34.811941"
"97","Grand Bend","255901","78834","2222","90 Green Nobel Boulevard","914",,,"WILLISTON",,,,,,,"2020-11-13 14:17:34.835055"
"97","Grand Bend","255901","78834","2222","58 Rocky Hague Parkway","929",,,"WILLISTON",,,,,,,"2020-11-13 14:17:34.934950"
"85","Grand Bend","255901","78834","2222","25 Old Parkway","733",,,"WILLISTON",,,,,,,"2020-11-13 14:17:33.648717"
"85","Grand Bend","255901","78834","2222","170 Rocky Hague Freeway","734",,,"WILLISTON",,,,,,,"2020-11-13 14:17:33.659134"
"85","Grand Bend","255901","78834","2222","88 Old Boulevard","736",,,"WILLISTON",,,,,,,"2020-11-13 14:17:33.671942"
"85","Grand Bend","255901","78834","2222","24 Oak Road","738",,,"WILLISTON",,,,,,,"2020-11-13 14:17:33.687483"
"85","Grand Bend","255901","78834","2222","640 West Cowley Avenue","741",,,"WILLISTON",,,,,,,"2020-11-13 14:17:33.699719"
"85","Grand Bend","255901","78834","2222","95 Rocky Milton Freeway","744",,,"WILLISTON",,,,,,,"2020-11-13 14:17:33.723251"
"85","Grand Bend","255901","78834","2222","51 South Milton Road","747",,,"WILLISTON",,,,,,,"2020-11-13 14:17:33.746093"
"85","Grand Bend","255901","78834","2222","555 Green Hague Way","750",,,"WILLISTON",,,,,,,"2020-11-13 14:17:33.758967"
"85","Grand Bend","255901","78834","2222","45 West Green Fabien Avenue","751",,,"WILLISTON",,,,,,,"2020-11-13 14:17:33.772280"
"85","Grand Bend","255901","78834","2222","45 New Parkway","755",,,"WILLISTON",,,,,,,"2020-11-13 14:17:33.784869"
"85","Grand Bend","255901","78834","2222","41 Second Drive","757",,,"WILLISTON",,,,,,,"2020-11-13 14:17:33.803119"
"85","Grand Bend","255901","78834","2222","93 North Nobel Boulevard","758",,,"WILLISTON",,,,,,,"2020-11-13 14:17:33.812333"
"90","Grand Bend","255901","78834","2222","163 Second Freeway","762",,,"WILLISTON",,,,,,,"2020-11-13 14:17:33.839934"
"85","Grand Bend","255901","78834","2222","610 Rocky Fabien Drive","763",,,"WILLISTON",,,,,,,"2020-11-13 14:17:33.848175"
"85","Grand Bend","255901","78834","2222","924 Fabien Drive","767",,,"WILLISTON",,,,,,,"2020-11-13 14:17:33.872599"
"85","Grand Bend","255901","78834","2222","94 Rocky Oak Freeway","770",,,"WILLISTON",,,,,,,"2020-11-13 14:17:33.891104"
"85","Grand Bend","255901","78834","2222","286 Nobel Street","771",,,"WILLISTON",,,,,,,"2020-11-13 14:17:33.909269"
"85","Grand Bend","255901","78834","2222","29 Rocky Milton Blvd.","774",,,"WILLISTON",,,,,,,"2020-11-13 14:17:33.919926"
"85","Grand Bend","255901","78834","2222","548 East Rocky Oak Avenue","775",,,"WILLISTON",,,,,,,"2020-11-13 14:17:33.932995"
"85","Grand Bend","255901","78834","2222","62 Second Street","777",,,"WILLISTON",,,,,,,"2020-11-13 14:17:33.944891"
"94","Grand Bend","255901","78834","2222","613 West Fabien Avenue","780",,,"WILLISTON",,,,,,,"2020-11-13 14:17:33.958124"
"85","Grand Bend","255901","78834","2222","31 White New Blvd.","783",,,"WILLISTON",,,,,,,"2020-11-13 14:17:33.983339"
"85","Grand Bend","255901","78834","2222","339 Green Cowley Avenue","785",,,"WILLISTON",,,,,,,"2020-11-13 14:17:33.998323"
"85","Grand Bend","255901","78834","2222","270 Rocky Old Freeway","786",,,"WILLISTON",,,,,,,"2020-11-13 14:17:34.007892"
"85","Grand Bend","255901","78834","2222","916 Green Old Parkway","791",,,"WILLISTON",,,,,,,"2020-11-13 14:17:34.034391"
"85","Grand Bend","255901","78834","2222","27 White Nobel Drive","794",,,"WILLISTON",,,,,,,"2020-11-13 14:17:34.060086"
"85","Grand Bend","255901","78834","2222","93 Cowley Blvd.","797",,,"WILLISTON",,,,,,,"2020-11-13 14:17:34.082159"
"85","Grand Bend","255901","78834","2222","80 White Old Avenue","800",,,"WILLISTON",,,,,,,"2020-11-13 14:17:34.091447"
"85","Grand Bend","255901","78834","2222","100 Oak Boulevard","801",,,"WILLISTON",,,,,,,"2020-11-13 14:17:34.109407"
"85","Grand Bend","255901","78834","2222","11 South Clarendon Avenue","804",,,"WILLISTON",,,,,,,"2020-11-13 14:17:34.118382"
"85","Grand Bend","255901","78834","2222","473 West Clarendon Road","805",,,"WILLISTON",,,,,,,"2020-11-13 14:17:34.133541"
"85","Grand Bend","255901","78834","2222","49 Nobel Drive","808",,,"WILLISTON",,,,,,,"2020-11-13 14:17:34.146056"
"85","Grand Bend","255901","78834","2222","98 South Hague Drive","809",,,"WILLISTON",,,,,,,"2020-11-13 14:17:34.159177"
"97","Grand Bend","255901","78834","2222","230 Green Cowley St.","812",,,"WILLISTON",,,,,,,"2020-11-13 14:17:34.175522"
"85","Grand Bend","255901","78834","2222","89 South Milton St.","813",,,"WILLISTON",,,,,,,"2020-11-13 14:17:34.187289"
"85","Grand Bend","255901","78834","2222","331 East Cowley Drive","817",,,"WILLISTON",,,,,,,"2020-11-13 14:17:34.211354"
"97","Grand Bend","255901","78834","2222","62 West Fabien Avenue","820",,,"WILLISTON",,,,,,,"2020-11-13 14:17:34.232892"
"97","Grand Bend","255901","78834","2222","828 Green Fabien Drive","823",,,"WILLISTON",,,,,,,"2020-11-13 14:17:34.244030"
"97","Grand Bend","255901","78834","2222","85 White Milton Freeway","827",,,"WILLISTON",,,,,,,"2020-11-13 14:17:34.263612"
"85","Grand Bend","255901","78834","2222","256 Green Nobel Boulevard","832",,,"WILLISTON",,,,,,,"2020-11-13 14:17:34.294822"
"97","Grand Bend","255901","78834","2222","287 Old Street","831",,,"WILLISTON",,,,,,,"2020-11-13 14:17:34.312107"
"85","Grand Bend","255901","78834","2222","21 North First Boulevard","833",,,"WILLISTON",,,,,,,"2020-11-13 14:17:34.318717"
"97","Grand Bend","255901","78834","2222","970 Nobel Drive","837",,,"WILLISTON",,,,,,,"2020-11-13 14:17:34.339635"
"97","Grand Bend","255901","78834","2222","192 South New Drive","838",,,"WILLISTON",,,,,,,"2020-11-13 14:17:34.345976"
"97","Grand Bend","255901","78834","2222","11 South Nobel Way","840",,,"WILLISTON",,,,,,,"2020-11-13 14:17:34.363313"
"97","Grand Bend","255901","78834","2222","265 Old Boulevard","842",,,"WILLISTON",,,,,,,"2020-11-13 14:17:34.372107"
"97","Grand Bend","255901","78834","2222","11 West Green Old Blvd.","847",,,"WILLISTON",,,,,,,"2020-11-13 14:17:34.398583"
"97","Grand Bend","255901","78834","2222","345 North Rocky Oak Avenue","850",,,"WILLISTON",,,,,,,"2020-11-13 14:17:34.423650"
"99","Grand Bend","255901","78834","2222","329 Cowley Freeway","852",,,"WILLISTON",,,,,,,"2020-11-13 14:17:34.437115"
"97","Grand Bend","255901","78834","2222","74 Clarendon Boulevard","855",,,"WILLISTON",,,,,,,"2020-11-13 14:17:34.452627"
"97","Grand Bend","255901","78834","2222","46 Rocky Old Boulevard","860",,,"WILLISTON",,,,,,,"2020-11-13 14:17:34.477852"
"97","Grand Bend","255901","78834","2222","76 Cowley Parkway","859",,,"WILLISTON",,,,,,,"2020-11-13 14:17:34.487747"
"97","Grand Bend","255901","78834","2222","933 Old St.","861",,,"WILLISTON",,,,,,,"2020-11-13 14:17:34.497443"
"97","Grand Bend","255901","78834","2222","516 Nobel Drive","863",,,"WILLISTON",,,,,,,"2020-11-13 14:17:34.507527"
"97","Grand Bend","255901","78834","2222","36 White Second Blvd.","868",,,"WILLISTON",,,,,,,"2020-11-13 14:17:34.544735"
"97","Grand Bend","255901","78834","2222","227 Oak Parkway","871",,,"WILLISTON",,,,,,,"2020-11-13 14:17:34.562144"
"97","Grand Bend","255901","78834","2222","487 Clarendon St.","872",,,"WILLISTON",,,,,,,"2020-11-13 14:17:34.572776"
"97","Grand Bend","255901","78834","2222","296 Clarendon Blvd.","876",,,"WILLISTON",,,,,,,"2020-11-13 14:17:34.596250"
"97","Grand Bend","255901","78834","2222","706 North First Freeway","879",,,"WILLISTON",,,,,,,"2020-11-13 14:17:34.617561"
"97","Grand Bend","255901","78834","2222","945 First Road","882",,,"WILLISTON",,,,,,,"2020-11-13 14:17:34.631471"
"97","Grand Bend","255901","78834","2222","635 Old Blvd.","885",,,"WILLISTON",,,,,,,"2020-11-13 14:17:34.644909"
"97","Grand Bend","255901","78834","2222","696 New Way","886",,,"WILLISTON",,,,,,,"2020-11-13 14:17:34.669205"
"97","Grand Bend","255901","78834","2222","72 East Cowley Way","891",,,"WILLISTON",,,,,,,"2020-11-13 14:17:34.693872"
"97","Grand Bend","255901","78834","2222","623 North White New Way","896",,,"WILLISTON",,,,,,,"2020-11-13 14:17:34.719372"
"97","Grand Bend","255901","78834","2222","65 Rocky New St.","898",,,"WILLISTON",,,,,,,"2020-11-13 14:17:34.741008"
"97","Grand Bend","255901","78834","2222","749 South Hague Road","903",,,"WILLISTON",,,,,,,"2020-11-13 14:17:34.750838"
"97","Grand Bend","255901","78834","2222","24 Oak Drive","901",,,"WILLISTON",,,,,,,"2020-11-13 14:17:34.768752"
"85","Grand Bend","255901","78834","2222","43 Cowley Drive","907",,,"WILLISTON",,,,,,,"2020-11-13 14:17:34.787751"
"97","Grand Bend","255901","78834","2222","65 South Hague Way","912",,,"WILLISTON",,,,,,,"2020-11-13 14:17:34.819147"
"97","Grand Bend","255901","78834","2222","781 Cowley Avenue","911",,,"WILLISTON",,,,,,,"2020-11-13 14:17:34.833118"
"97","Grand Bend","255901","78834","2222","272 West Old Drive","893",,,"WILLISTON",,,,,,,"2020-11-13 14:17:34.695339"
"97","Grand Bend","255901","78834","2222","66 Clarendon Road","897",,,"WILLISTON",,,,,,,"2020-11-13 14:17:34.720682"
"97","Grand Bend","255901","78834","2222","20 Rocky New Boulevard","899",,,"WILLISTON",,,,,,,"2020-11-13 14:17:34.745124"
"85","Grand Bend","255901","78834","2222","175 Hague Avenue","902",,,"WILLISTON",,,,,,,"2020-11-13 14:17:34.765319"
"97","Grand Bend","255901","78834","2222","52 Fabien Freeway","905",,,"WILLISTON",,,,,,,"2020-11-13 14:17:34.784396"
"97","Grand Bend","255901","78834","2222","437 Rocky Fabien Parkway","906",,,"WILLISTON",,,,,,,"2020-11-13 14:17:34.792522"
"97","Grand Bend","255901","78834","2222","78 Green Hague Drive","909",,,"WILLISTON",,,,,,,"2020-11-13 14:17:34.810093"
"97","Grand Bend","255901","78834","2222","59 Hague Freeway","917",,,"WILLISTON",,,,,,,"2020-11-13 14:17:34.859053"
"97","Grand Bend","255901","78834","2222","13 First Road","919",,,"WILLISTON",,,,,,,"2020-11-13 14:17:34.883679"
"97","Grand Bend","255901","78834","2222","82 Hague Way","927",,,"WILLISTON",,,,,,,"2020-11-13 14:17:34.917753"
"97","Grand Bend","255901","78834","2222","716 Green Milton Parkway","933",,,"WILLISTON",,,,,,,"2020-11-13 14:17:34.943640"
"97","Grand Bend","255901","78834","2222","53 Rocky Milton Street","935",,,"WILLISTON",,,,,,,"2020-11-13 14:17:34.964138"
"97","Grand Bend","255901","78834","2222","93 Second Boulevard","938",,,"WILLISTON",,,,,,,"2020-11-13 14:17:34.986915"
"97","Grand Bend","255901","78834","2222","662 East Green Second St.","940",,,"WILLISTON",,,,,,,"2020-11-13 14:17:35.001644"
"97","Grand Bend","255901","78834","2222","406 Hague Way","941",,,"WILLISTON",,,,,,,"2020-11-13 14:17:35.011058"
"97","Grand Bend","255901","78834","2222","33 White Nobel Freeway","943",,,"WILLISTON",,,,,,,"2020-11-13 14:17:35.026919"
"97","Grand Bend","255901","78834","2222","498 South Green Milton Way","944",,,"WILLISTON",,,,,,,"2020-11-13 14:17:35.034364"
"97","Grand Bend","255901","78834","2222","84 Cowley Road","946",,,"WILLISTON",,,,,,,"2020-11-13 14:17:35.042814"
"97","Grand Bend","255901","78834","2222","49 White New Way","947",,,"WILLISTON",,,,,,,"2020-11-13 14:17:35.052224"
"97","Grand Bend","255901","78834","2222","305 East Old Way","952",,,"WILLISTON",,,,,,,"2020-11-13 14:17:35.081555"
"97","Grand Bend","255901","78834","2222","549 Cowley Blvd.","955",,,"WILLISTON",,,,,,,"2020-11-13 14:17:35.099736"
"97","Grand Bend","255901","78834","2222","373 New St.","957",,,"WILLISTON",,,,,,,"2020-11-13 14:17:35.111704"
"97","Grand Bend","255901","78834","2222","51 East Green Clarendon Freeway","915",,,"WILLISTON",,,,,,,"2020-11-13 14:17:34.842861"
"97","Grand Bend","255901","78834","2222","52 First St.","918",,,"WILLISTON",,,,,,,"2020-11-13 14:17:34.861443"
"97","Grand Bend","255901","78834","2222","19 Nobel Drive","920",,,"WILLISTON",,,,,,,"2020-11-13 14:17:34.867479"
"97","Grand Bend","255901","78834","2222","30 First Street","921",,,"WILLISTON",,,,,,,"2020-11-13 14:17:34.883681"
"97","Grand Bend","255901","78834","2222","69 South Rocky Hague Street","923",,,"WILLISTON",,,,,,,"2020-11-13 14:17:34.893187"
"97","Grand Bend","255901","78834","2222","715 First Boulevard","924",,,"WILLISTON",,,,,,,"2020-11-13 14:17:34.908899"
"97","Grand Bend","255901","78834","2222","21 Rocky Clarendon Street","926",,,"WILLISTON",,,,,,,"2020-11-13 14:17:34.918803"
"97","Grand Bend","255901","78834","2222","52 First Way","930",,,"WILLISTON",,,,,,,"2020-11-13 14:17:34.939455"
"97","Grand Bend","255901","78834","2222","52 Milton Road","932",,,"WILLISTON",,,,,,,"2020-11-13 14:17:34.961734"
"97","Grand Bend","255901","78834","2222","58 Old Road","934",,,"WILLISTON",,,,,,,"2020-11-13 14:17:34.972133"
"97","Grand Bend","255901","78834","2222","626 Green Milton Street","936",,,"WILLISTON",,,,,,,"2020-11-13 14:17:34.984590"
"97","Grand Bend","255901","78834","2222","618 Clarendon Boulevard","939",,,"WILLISTON",,,,,,,"2020-11-13 14:17:35.009513"
"97","Grand Bend","255901","78834","2222","271 East Rocky Oak Street","942",,,"WILLISTON",,,,,,,"2020-11-13 14:17:35.017254"
"97","Grand Bend","255901","78834","2222","90 North Milton Boulevard","945",,,"WILLISTON",,,,,,,"2020-11-13 14:17:35.032679"
"97","Grand Bend","255901","78834","2222","89 White Fabien Road","949",,,"WILLISTON",,,,,,,"2020-11-13 14:17:35.059810"
"97","Grand Bend","255901","78834","2222","64 North Cowley Drive","950",,,"WILLISTON",,,,,,,"2020-11-13 14:17:35.068894"
"97","Grand Bend","255901","78834","2222","958 Rocky Oak Freeway","951",,,"WILLISTON",,,,,,,"2020-11-13 14:17:35.076083"
"97","Grand Bend","255901","78834","2222","489 Rocky Fabien Street","953",,,"WILLISTON",,,,,,,"2020-11-13 14:17:35.084479"
"97","Grand Bend","255901","78834","2222","734 East Fabien Drive","954",,,"WILLISTON",,,,,,,"2020-11-13 14:17:35.093797"
"97","Grand Bend","255901","78834","2222","753 Second Street","958",,,"WILLISTON",,,,,,,"2020-11-13 14:17:35.119566"
"97","Grand Bend","255901","78834","2222","35 North Nobel Blvd.","960",,,"WILLISTON",,,,,,,"2020-11-13 14:17:35.131986"
"90","Grand Bend","255901","78834","2222","980 Green New Boulevard","4",,,"WILLISTON",,,,,,,"2020-11-13 14:17:28.511558"
"90","Grand Bend","255901","78834","2222","26 North Fabien St.","6",,,"WILLISTON",,,,,,,"2020-11-13 14:17:28.547670"
"90","Grand Bend","255901","78834","2222","24 Hague Street","12",,,"WILLISTON",,,,,,,"2020-11-13 14:17:28.576451"
"90","Grand Bend","255901","78834","2222","317 White Nobel Road","13",,,"WILLISTON",,,,,,,"2020-11-13 14:17:28.600115"
"90","Grand Bend","255901","78834","2222","78 Rocky Second Avenue","15",,,"WILLISTON",,,,,,,"2020-11-13 14:17:28.609750"
"90","Grand Bend","255901","78834","2222","82 Second Boulevard","18",,,"WILLISTON",,,,,,,"2020-11-13 14:17:28.626267"
"90","Grand Bend","255901","78834","2222","729 Nobel Parkway","23",,,"WILLISTON",,,,,,,"2020-11-13 14:17:28.653305"
"90","Grand Bend","255901","78834","2222","28 Oak Parkway","26",,,"WILLISTON",,,,,,,"2020-11-13 14:17:28.673066"
"90","Grand Bend","255901","78834","2222","20 White Milton Drive","30",,,"WILLISTON",,,,,,,"2020-11-13 14:17:28.703969"
"90","Grand Bend","255901","78834","2222","992 North Green New Freeway","31",,,"WILLISTON",,,,,,,"2020-11-13 14:17:28.723045"
"90","Grand Bend","255901","78834","2222","60 Hague Blvd.","36",,,"WILLISTON",,,,,,,"2020-11-13 14:17:28.747405"
"90","Grand Bend","255901","78834","2222","970 East Green Fabien Road","39",,,"WILLISTON",,,,,,,"2020-11-13 14:17:28.771374"
"90","Grand Bend","255901","78834","2222","578 Green Hague Drive","43",,,"WILLISTON",,,,,,,"2020-11-13 14:17:28.798523"
"90","Grand Bend","255901","78834","2222","98 West Cowley Blvd.","48",,,"WILLISTON",,,,,,,"2020-11-13 14:17:28.830462"
"90","Grand Bend","255901","78834","2222","681 New Way","49",,,"WILLISTON",,,,,,,"2020-11-13 14:17:28.841701"
"90","Grand Bend","255901","78834","2222","375 Oak Street","52",,,"WILLISTON",,,,,,,"2020-11-13 14:17:28.852082"
"90","Grand Bend","255901","78834","2222","868 White Cowley Street","54",,,"WILLISTON",,,,,,,"2020-11-13 14:17:28.872421"
"90","Grand Bend","255901","78834","2222","930 White Oak St.","56",,,"WILLISTON",,,,,,,"2020-11-13 14:17:28.884445"
"90","Grand Bend","255901","78834","2222","325 South Second Way","57",,,"WILLISTON",,,,,,,"2020-11-13 14:17:28.896414"
"90","Grand Bend","255901","78834","2222","201 South Green First Parkway","59",,,"WILLISTON",,,,,,,"2020-11-13 14:17:28.906507"
"90","Grand Bend","255901","78834","2222","274 Green Clarendon Drive","61",,,"WILLISTON",,,,,,,"2020-11-13 14:17:28.927090"
"90","Grand Bend","255901","78834","2222","78 Hague Avenue","63",,,"WILLISTON",,,,,,,"2020-11-13 14:17:28.936870"
"90","Grand Bend","255901","78834","2222","398 Cowley Drive","65",,,"WILLISTON",,,,,,,"2020-11-13 14:17:28.961868"
"90","Grand Bend","255901","78834","2222","15 White First Way","66",,,"WILLISTON",,,,,,,"2020-11-13 14:17:28.971669"
"90","Grand Bend","255901","78834","2222","688 North Green Clarendon Parkway","71",,,"WILLISTON",,,,,,,"2020-11-13 14:17:28.997476"
"90","Grand Bend","255901","78834","2222","56 Old Freeway","73",,,"WILLISTON",,,,,,,"2020-11-13 14:17:29.010155"
"90","Grand Bend","255901","78834","2222","79 Milton St.","77",,,"WILLISTON",,,,,,,"2020-11-13 14:17:29.032794"
"90","Grand Bend","255901","78834","2222","80 First St.","78",,,"WILLISTON",,,,,,,"2020-11-13 14:17:29.048594"
"90","Grand Bend","255901","78834","2222","349 Oak Freeway","81",,,"WILLISTON",,,,,,,"2020-11-13 14:17:29.069327"
"90","Grand Bend","255901","78834","2222","64 Nobel Freeway","84",,,"WILLISTON",,,,,,,"2020-11-13 14:17:29.082833"
"90","Grand Bend","255901","78834","2222","222 Green First Boulevard","85",,,"WILLISTON",,,,,,,"2020-11-13 14:17:29.092510"
"90","Grand Bend","255901","78834","2222","55 Rocky First Road","88",,,"WILLISTON",,,,,,,"2020-11-13 14:17:29.113051"
"90","Grand Bend","255901","78834","2222","41 Cowley Blvd.","91",,,"WILLISTON",,,,,,,"2020-11-13 14:17:29.134353"
"90","Grand Bend","255901","78834","2222","90 South White Nobel St.","94",,,"WILLISTON",,,,,,,"2020-11-13 14:17:29.149010"
"90","Grand Bend","255901","78834","2222","620 Old Boulevard","95",,,"WILLISTON",,,,,,,"2020-11-13 14:17:29.161689"
"90","Grand Bend","255901","78834","2222","15 Milton Street","97",,,"WILLISTON",,,,,,,"2020-11-13 14:17:29.173118"
"90","Grand Bend","255901","78834","2222","269 Oak Parkway","100",,,"WILLISTON",,,,,,,"2020-11-13 14:17:29.192088"
"90","Grand Bend","255901","78834","2222","178 Rocky New Blvd.","105",,,"WILLISTON",,,,,,,"2020-11-13 14:17:29.218842"
"90","Grand Bend","255901","78834","2222","80 White Old Avenue","102",,,"WILLISTON",,,,,,,"2020-11-13 14:17:29.230434"
"90","Grand Bend","255901","78834","2222","28 Old Boulevard","108",,,"WILLISTON",,,,,,,"2020-11-13 14:17:29.243977"
"90","Grand Bend","255901","78834","2222","14 White Milton Blvd.","111",,,"WILLISTON",,,,,,,"2020-11-13 14:17:29.270774"
"90","Grand Bend","255901","78834","2222","12 Cowley Avenue","114",,,"WILLISTON",,,,,,,"2020-11-13 14:17:29.297854"
"90","Grand Bend","255901","78834","2222","51 Rocky Oak Avenue","117",,,"WILLISTON",,,,,,,"2020-11-13 14:17:29.320786"
"90","Grand Bend","255901","78834","2222","89 East Green Milton Parkway","120",,,"WILLISTON",,,,,,,"2020-11-13 14:17:29.331929"
"90","Grand Bend","255901","78834","2222","65 Second Road","124",,,"WILLISTON",,,,,,,"2020-11-13 14:17:29.358068"
"90","Grand Bend","255901","78834","2222","788 Oak Boulevard","128",,,"WILLISTON",,,,,,,"2020-11-13 14:17:29.386230"
"90","Grand Bend","255901","78834","2222","720 White Milton Blvd.","130",,,"WILLISTON",,,,,,,"2020-11-13 14:17:29.403378"
"94","Grand Bend","255901","78834","2222","847 First Street","132",,,"WILLISTON",,,,,,,"2020-11-13 14:17:29.411260"
"90","Grand Bend","255901","78834","2222","472 Fabien Way","134",,,"WILLISTON",,,,,,,"2020-11-13 14:17:29.429347"
"90","Grand Bend","255901","78834","2222","37 West Rocky Old Avenue","136",,,"WILLISTON",,,,,,,"2020-11-13 14:17:29.437271"
"90","Grand Bend","255901","78834","2222","52 White Clarendon Drive","138",,,"WILLISTON",,,,,,,"2020-11-13 14:17:29.454723"
"94","Grand Bend","255901","78834","2222","50 Fabien Road","141",,,"WILLISTON",,,,,,,"2020-11-13 14:17:29.474836"
"94","Grand Bend","255901","78834","2222","605 Green First Street","145",,,"WILLISTON",,,,,,,"2020-11-13 14:17:29.503939"
"94","Grand Bend","255901","78834","2222","39 Fabien Blvd.","147",,,"WILLISTON",,,,,,,"2020-11-13 14:17:29.512164"
"94","Grand Bend","255901","78834","2222","28 White Second Parkway","149",,,"WILLISTON",,,,,,,"2020-11-13 14:17:29.531431"
"94","Grand Bend","255901","78834","2222","201 First Street","152",,,"WILLISTON",,,,,,,"2020-11-13 14:17:29.547952"
"90","Grand Bend","255901","78834","2222","631 Rocky First Road","154",,,"WILLISTON",,,,,,,"2020-11-13 14:17:29.559135"
"94","Grand Bend","255901","78834","2222","932 West Rocky Cowley Parkway","156",,,"WILLISTON",,,,,,,"2020-11-13 14:17:29.573488"
"90","Grand Bend","255901","78834","2222","354 West Second St.","158",,,"WILLISTON",,,,,,,"2020-11-13 14:17:29.584093"
"94","Grand Bend","255901","78834","2222","891 White Old Blvd.","162",,,"WILLISTON",,,,,,,"2020-11-13 14:17:29.609781"
"94","Grand Bend","255901","78834","2222","45 South Fabien Way","164",,,"WILLISTON",,,,,,,"2020-11-13 14:17:29.855125"
"90","Grand Bend","255901","78834","2222","63 West Rocky Old Way","167",,,"WILLISTON",,,,,,,"2020-11-13 14:17:29.880664"
"94","Grand Bend","255901","78834","2222","88 Green Hague Boulevard","171",,,"WILLISTON",,,,,,,"2020-11-13 14:17:29.906036"
"94","Grand Bend","255901","78834","2222","280 South White First Avenue","173",,,"WILLISTON",,,,,,,"2020-11-13 14:17:29.913347"
"90","Grand Bend","255901","78834","2222","11 East Old Blvd.","179",,,"WILLISTON",,,,,,,"2020-11-13 14:17:29.942793"
"94","Grand Bend","255901","78834","2222","50 Rocky Old Avenue","177",,,"WILLISTON",,,,,,,"2020-11-13 14:17:29.992412"
"90","Grand Bend","255901","78834","2222","54 Hague Way","184",,,"WILLISTON",,,,,,,"2020-11-13 14:17:30.038963"
"90","Grand Bend","255901","78834","2222","144 New Drive","189",,,"WILLISTON",,,,,,,"2020-11-13 14:17:30.062486"
"94","Grand Bend","255901","78834","2222","32 Cowley Street","192",,,"WILLISTON",,,,,,,"2020-11-13 14:17:30.088603"
"90","Grand Bend","255901","78834","2222","932 White Hague Way","196",,,"WILLISTON",,,,,,,"2020-11-13 14:17:30.113304"
